{"version": 0.6, "generator": "Overpass API 0.7.62.8 e802775f", "osm3s": {"timestamp_osm_base": "2025-12-22T17:56:00Z", "copyright": "The data included in this document is from www.openstreetmap.org. The data is made available under ODbL."}, "elements": [{"type": "node", "id": 189770195, "lat": 45.5506347, "lon": -73.6711511, "tags": {"name": "Sharmi", "shop": "supermarket"}}, {"type": "node", "id": 221063335, "lat": 45.5088138, "lon": -73.5717973, "tags": {"brand": "Provigo", "brand:wikidata": "Q3408306", "brand:wikipedia": "en:Provigo", "check_date": "2025-08-25", "name": "Provigo", "opening_hours": "Mo-Su 08:00-23:00", "payment:apple_pay": "yes", "payment:cash": "yes", "payment:contactless": "yes", "payment:credit_cards": "yes", "shop": "supermarket", "wheelchair": "yes"}}, {"type": "node", "id": 237578368, "lat": 45.4921473, "lon": -73.5821806, "tags": {"addr:city": "Montr\u00e9al", "addr:housenumber": "1420", "addr:province": "QC", "addr:street": "Rue du Fort", "name": "PA Supermarch\u00e9", "opening_hours": "Mo-Su 08:00-22:00", "shop": "supermarket", "wheelchair": "yes"}}, {"type": "node", "id": 237578374, "lat": 45.5194351, "lon": -73.5949644, "tags": {"addr:housenumber": "5029", "addr:street": "Avenue du Parc", "check_date": "2024-10-17", "name": "PA Nature Supermarch\u00e9", "opening_hours": "Mo-Su 08:30-21:00", "organic": "yes", "phone": "+1 514 271 8788", "shop": "supermarket", "website": "https://pa-nature.supermarchepa.com/", "wheelchair": "yes"}}, {"type": "node", "id": 424780619, "lat": 45.5076575, "lon": -73.5632765, "tags": {"brand": "IGA", "brand:wikidata": "Q3146662", "brand:wikipedia": "en:IGA (supermarkets)", "level": "-1", "name": "IGA", "opening_hours": "08:00-21:00", "operator": "IGA", "shop": "supermarket", "wheelchair": "yes"}}, {"type": "node", "id": 456028209, "lat": 45.4630146, "lon": -73.5693087, "tags": {"addr:city": "Montr\u00e9al", "addr:housenumber": "421", "addr:province": "QC", "addr:street": "Rue de l'\u00c9glise", "name": "Fruiterie Soleil", "opening_hours": "Mo-Fr 08:00-20:00, Sa,Su 09:00-19:00", "shop": "supermarket"}}, {"type": "node", "id": 477053618, "lat": 45.4767393, "lon": -73.6147435, "tags": {"brand": "Metro", "brand:wikidata": "Q1145669", "name": "Metro", "shop": "supermarket"}}, {"type": "node", "id": 598258729, "lat": 45.5990431, "lon": -73.5593667}, {"type": "node", "id": 598258730, "lat": 45.5989601, "lon": -73.5591792}, {"type": "node", "id": 598258731, "lat": 45.5996078, "lon": -73.5599359}, {"type": "node", "id": 598258732, "lat": 45.5992662, "lon": -73.5591648}, {"type": "node", "id": 598258733, "lat": 45.5991557, "lon": -73.5603451}, {"type": "node", "id": 598279782, "lat": 45.5696409, "lon": -73.6058562}, {"type": "node", "id": 598279783, "lat": 45.5697951, "lon": -73.6057177}, {"type": "node", "id": 598279784, "lat": 45.5696973, "lon": -73.6059843}, {"type": "node", "id": 598279791, "lat": 45.5698497, "lon": -73.606368}, {"type": "node", "id": 598279794, "lat": 45.5691586, "lon": -73.6064681}, {"type": "node", "id": 598279798, "lat": 45.5706008, "lon": -73.6066488}, {"type": "node", "id": 598279799, "lat": 45.570149, "lon": -73.6070522}, {"type": "node", "id": 598279800, "lat": 45.5704193, "lon": -73.6062339}, {"type": "node", "id": 598279801, "lat": 45.5703674, "lon": -73.6058118}, {"type": "node", "id": 598279802, "lat": 45.5705148, "lon": -73.6061486}, {"type": "node", "id": 598279803, "lat": 45.5702747, "lon": -73.6059887}, {"type": "node", "id": 598279804, "lat": 45.5702716, "lon": -73.6058974}, {"type": "node", "id": 598279807, "lat": 45.5692894, "lon": -73.6048883}, {"type": "node", "id": 598279808, "lat": 45.569569, "lon": -73.6055272}, {"type": "node", "id": 598279809, "lat": 45.5696752, "lon": -73.6054318}, {"type": "node", "id": 647091295, "lat": 45.5202602, "lon": -73.6243723, "tags": {"brand": "Metro", "brand:wikidata": "Q1145669", "brand:wikipedia": "fr:Metro (entreprise qu\u00e9b\u00e9coise)", "name": "Metro", "operator": "M\u00e9tro \u00e9picier - Ville Mont-Royal", "shop": "supermarket"}}, {"type": "node", "id": 750191186, "lat": 45.6692647, "lon": -73.5069473, "tags": {"brand": "Metro", "brand:wikidata": "Q1145669", "brand:wikipedia": "fr:Metro (entreprise qu\u00e9b\u00e9coise)", "name": "Metro", "opening_hours": "Mo-Su 08:00-21:00", "operator": "Metro Plus De La Rousseli\u00e8re", "shop": "supermarket"}}, {"type": "node", "id": 775041465, "lat": 45.5452013, "lon": -73.6044616}, {"type": "node", "id": 810790342, "lat": 45.5274369, "lon": -73.5854381, "tags": {"addr:city": "Montr\u00e9al", "addr:housenumber": "750", "addr:province": "QC", "addr:street": "Rue Gilford", "contact:email": "info@3piliers.ca", "contact:phone": "+1-514-563-1204", "contact:website": "http://www.3piliers.ca/", "name": "March\u00e9 3 Piliers", "opening_hours": "Mo-Fr 07:30-21:00; Sa,Su 08:00-20:00", "organic": "only", "shop": "supermarket"}}, {"type": "node", "id": 810790846, "lat": 45.5262457, "lon": -73.5882999, "tags": {"addr:city": "Montr\u00e9al", "addr:housenumber": "5000", "addr:postcode": "H2J2L8", "addr:province": "QC", "addr:street": "Rue Saint-Denis", "check_date": "2024-06-24", "name": "Fruiterie Muscat", "opening_hours": "Mo-Fr 08:00-20:00; Sa-Su 09:00-20:00", "payment:mastercard": "yes", "payment:visa": "yes", "phone": "+1 514 284 6377", "shop": "supermarket", "website": "https://www.facebook.com/people/Fruiterie-Muscat/100093876760181/", "wheelchair": "yes"}}, {"type": "node", "id": 812681589, "lat": 45.5542317, "lon": -73.601669, "tags": {"addr:housename": "March\u00e9 Tradition", "addr:housenumber": "2535", "addr:street": "Rue Jean-Talon Est", "name": "March\u00e9 Tradition", "opening_hours": "Mo-Su 08:00-21:00; PH closed", "shop": "supermarket"}}, {"type": "node", "id": 812681630, "lat": 45.5441676, "lon": -73.6107107, "tags": {"addr:city": "Montr\u00e9al", "addr:housenumber": "1263", "addr:postcode": "H2R 1W4", "addr:street": "Rue Jean-Talon Est", "diet:halal": "yes", "diet:kosher": "no", "name": "March\u00e9 Nuvo", "opening_hours": "Mo-Su 08:00-21:00", "payment:credit_cards": "yes", "payment:debit_cards": "yes", "shop": "supermarket", "website": "https://marchenuvo.ca/", "wheelchair": "yes"}}, {"type": "node", "id": 828177116, "lat": 45.5425786, "lon": -73.6071321, "tags": {"name": "March\u00e9 Lafirenz\u00e9", "organic": "yes", "shop": "grocery", "wheelchair": "no"}}, {"type": "node", "id": 867272180, "lat": 45.5446275, "lon": -73.5632464}, {"type": "node", "id": 867272183, "lat": 45.5443667, "lon": -73.5623555}, {"type": "node", "id": 867272187, "lat": 45.5452582, "lon": -73.5618218}, {"type": "node", "id": 867272190, "lat": 45.5455269, "lon": -73.5627003}, {"type": "node", "id": 867695552, "lat": 45.551752, "lon": -73.564648, "tags": {"addr:housenumber": "3600", "addr:postcode": "H1X 1W6", "addr:street": "Boulevard Saint-Joseph Est", "branch": "plus", "brand": "Metro", "brand:wikidata": "Q1145669", "brand:wikipedia": "fr:Metro (entreprise qu\u00e9b\u00e9coise)", "check_date": "2024-07-23", "name": "Metro", "opening_hours": "Mo-Su 08:00-21:00", "shop": "supermarket", "website": "https://www.metro.ca/en/find-a-grocery/137"}}, {"type": "node", "id": 892656416, "lat": 45.5679098, "lon": -73.5894835, "tags": {"brand": "Metro", "brand:wikidata": "Q1145669", "brand:wikipedia": "en:Metro Inc.", "name": "Metro", "shop": "supermarket"}}, {"type": "node", "id": 892656435, "lat": 45.5695531, "lon": -73.5904206, "tags": {"addr:city": "Montr\u00e9al", "addr:housenumber": "4325", "addr:province": "QC", "addr:street": "Rue Jean-Talon Est", "branch": "Rue Jean-Talon", "brand": "Maxi", "brand:wikidata": "Q3302441", "brand:wikipedia": "fr:Maxi (supermarch\u00e9)", "name": "Maxi Rue Jean-Talon", "opening_hours": "Mo-Su 08:00-21:00", "operator": "Loblaw Companies Limited", "phone": "+1 514 727 3771", "shop": "supermarket", "website": "https://www.maxi.ca/fr/store-locator/details/8956/"}}, {"type": "node", "id": 926984552, "lat": 45.510411, "lon": -73.5749971, "tags": {"addr:city": "Montr\u00e9al", "addr:postcode": "H3Y 1P9", "addr:province": "Quebec", "branch": "Avenue du Parc", "brand": "Metro", "brand:wikidata": "Q1145669", "name": "Metro", "opening_hours": "Mo-Su 08:00-22:00", "operator": "Metro", "shop": "supermarket", "wheelchair": "yes"}}, {"type": "node", "id": 998497093, "lat": 45.4517707, "lon": -73.6080382}, {"type": "node", "id": 998497095, "lat": 45.4512751, "lon": -73.6084629}, {"type": "node", "id": 998497096, "lat": 45.4508575, "lon": -73.6075139, "tags": {"door": "automatic", "entrance": "main", "wheelchair": "yes"}}, {"type": "node", "id": 998497101, "lat": 45.4507193, "lon": -73.6071311}, {"type": "node", "id": 998497105, "lat": 45.4512223, "lon": -73.6067232}, {"type": "node", "id": 1012003825, "lat": 45.5443001, "lon": -73.5780783}, {"type": "node", "id": 1012003826, "lat": 45.5441247, "lon": -73.5775003}, {"type": "node", "id": 1012003827, "lat": 45.5436504, "lon": -73.5777937}, {"type": "node", "id": 1012003829, "lat": 45.5438416, "lon": -73.5784242}, {"type": "node", "id": 1012003830, "lat": 45.5439431, "lon": -73.5783614}, {"type": "node", "id": 1012003831, "lat": 45.5439272, "lon": -73.578309}, {"type": "node", "id": 1028375789, "lat": 45.5446406, "lon": -73.5621962}, {"type": "node", "id": 1055541329, "lat": 45.5409731, "lon": -73.5592925, "tags": {"addr:city": "Montr\u00e9al", "addr:housenumber": "2925", "addr:postcode": "H1W 1B2", "addr:province": "Qu\u00e9bec", "addr:street": "Rue Sherbrooke Est", "brand": "Maxi", "brand:wikidata": "Q3302441", "brand:wikipedia": "en:Maxi (Canadian supermarket)", "contact:phone": "+1-514-521-0660", "name": "Maxi", "opening_hours": "08:00-22:00", "shop": "supermarket"}}, {"type": "node", "id": 1180620077, "lat": 45.5819624, "lon": -73.5430252, "tags": {"addr:city": "Montr\u00e9al", "addr:housenumber": "6550", "addr:postcode": "H1N 1C6", "addr:province": "Qu\u00e9bec", "addr:street": "Rue Sherbrooke Est", "brand": "Metro", "brand:wikidata": "Q1145669", "brand:wikipedia": "en:Metro Inc.", "name": "Metro Plus - March\u00e9 d'alimentation Domaine", "opening_hours": "Mo-Su 08:00-22:00", "phone": "+1-514-259-8403", "shop": "supermarket", "website": "https://www.metro.ca/trouver-une-epicerie/176"}}, {"type": "node", "id": 1188379795, "lat": 45.5374033, "lon": -73.5707588, "tags": {"addr:city": "Montr\u00e9al", "addr:housenumber": "2275", "addr:postcode": "H2H 1K7", "addr:province": "Qu\u00e9bec", "addr:street": "Avenue du Mont-Royal Est", "check_date": "2025-04-03", "check_date:diet:halal": "2025-04-03", "check_date:diet:kosher": "2025-04-03", "diet:halal": "yes", "diet:kosher": "yes", "name": "Supermarch\u00e9 Metro Mont-Royal", "payment:credit_cards": "yes", "payment:debit_cards": "yes", "payment:mastercard": "yes", "payment:visa": "yes", "shop": "supermarket", "wheelchair": "yes"}}, {"type": "node", "id": 1192163647, "lat": 45.494659, "lon": -73.5809625, "tags": {"name": "March\u00e9 Boni-Soir", "opening_hours": "24/7", "shop": "grocery", "wheelchair": "yes"}}, {"type": "node", "id": 1258954658, "lat": 45.5180576, "lon": -73.6983369}, {"type": "node", "id": 1258954659, "lat": 45.5178394, "lon": -73.6989495}, {"type": "node", "id": 1258954660, "lat": 45.5176142, "lon": -73.6974447}, {"type": "node", "id": 1258954661, "lat": 45.5177496, "lon": -73.6988079}, {"type": "node", "id": 1258954662, "lat": 45.5179778, "lon": -73.6985963}, {"type": "node", "id": 1258954663, "lat": 45.5175852, "lon": -73.6990204}, {"type": "node", "id": 1258954664, "lat": 45.5180386, "lon": -73.6986921}, {"type": "node", "id": 1258954665, "lat": 45.5170489, "lon": -73.6981755}, {"type": "node", "id": 1258954666, "lat": 45.5181121, "lon": -73.6984228}, {"type": "node", "id": 1258954667, "lat": 45.5181251, "lon": -73.6982497}, {"type": "node", "id": 1299821530, "lat": 45.5337498, "lon": -73.5510348, "tags": {"addr:housenumber": "2600", "addr:postcode": "H2K 4K4", "addr:street": "Ontario E.", "brand": "IGA", "brand:wikidata": "Q3146662", "brand:wikipedia": "en:IGA (supermarkets)", "check_date": "2023-03-04", "name": "IGA", "payment:interac": "yes", "payment:mastercard": "yes", "payment:visa": "yes", "shop": "supermarket", "website": "https://www.iga.net/", "wheelchair": "yes"}}, {"type": "node", "id": 1302752337, "lat": 45.5448971, "lon": -73.5873471, "tags": {"addr:housenumber": "2340", "addr:street": "Boulevard Rosemont", "branch": "Panelli", "brand": "IGA", "brand:wikidata": "Q3146662", "check_date": "2025-08-29", "name": "March\u00e9 Tradition", "payment:interac": "yes", "payment:mastercard": "yes", "payment:visa": "yes", "shop": "supermarket", "website": "http://www.igarosemont.ca"}}, {"type": "node", "id": 1314138588, "lat": 45.5329444, "lon": -73.5844346, "tags": {"addr:city": "Montr\u00e9al", "addr:housenumber": "1293", "addr:postcode": "H2J 1H2", "addr:province": "QC", "addr:street": "Avenue Laurier Est", "branch": "Beaulieu Laurier", "brand": "Metro", "brand:wikidata": "Q1145669", "check_date": "2022-12-30", "name": "Metro", "opening_hours": "Mo-Su 08:00-22:00", "payment:cash": "yes", "payment:credit_cards": "yes", "payment:debit_cards": "yes", "shop": "supermarket", "wheelchair": "yes"}}, {"type": "node", "id": 1427593058, "lat": 45.4319841, "lon": -73.6334481, "tags": {"addr:housenumber": "2101", "addr:street": "avenue Dollard", "brand": "Maxi", "brand:wikidata": "Q3302441", "brand:wikipedia": "fr:Maxi (supermarch\u00e9)", "name": "Maxi", "opening_hours": "Mo-Su 08:00-22:00", "phone": "+1 514-363-1503", "shop": "supermarket", "website": "https://www.maxi.ca/store-locator/details/8900?"}}, {"type": "node", "id": 1433206466, "lat": 45.535581, "lon": -73.6989551, "tags": {"addr:city": "Montr\u00e9al", "brand": "IGA", "brand:wikidata": "Q3146662", "brand:wikipedia": "en:IGA (supermarkets)", "contact:email": "test@teksystems.com", "designation": "Supermarch\u00e9", "name": "IGA", "owner": "John", "phone": "+1-514-345-2341", "shop": "supermarket", "website": "https://www.teksystems.com/"}}, {"type": "node", "id": 1461351519, "lat": 45.5298861, "lon": -73.5902434, "tags": {"check_date": "2024-07-14", "disused:shop": "supermarket"}}, {"type": "node", "id": 1467302722, "lat": 45.5273782, "lon": -73.5796136}, {"type": "node", "id": 1467302724, "lat": 45.527602, "lon": -73.5794063}, {"type": "node", "id": 1509946589, "lat": 45.4583543, "lon": -73.5880765, "tags": {"addr:city": "Montr\u00e9al", "addr:housenumber": "6000", "addr:province": "QC", "addr:street": "Rue Laurendeau", "brand": "Maxi", "brand:wikidata": "Q3302441", "brand:wikipedia": "fr:Maxi (supermarch\u00e9)", "check_date": "2025-07-13", "check_date:opening_hours": "2024-11-13", "internet_access": "no", "name": "Maxi", "opening_hours": "Mo-Su 08:00-22:00", "payment:cash": "yes", "payment:credit_cards": "yes", "payment:debit_cards": "yes", "shop": "supermarket", "wheelchair": "yes"}}, {"type": "node", "id": 1537166702, "lat": 45.5307337, "lon": -73.6232425, "tags": {"addr:city": "Montr\u00e9al", "addr:housenumber": "375", "addr:postcode": "H3N 2Y8", "addr:province": "QC", "addr:street": "Jean-Talon Ouest", "alt_name": "Maxi Montr\u00e9al Jean-Talon", "amenity": "grocery", "automatic_door": "yes", "branch": "Avenue du Parc", "brand": "Maxi", "brand:wikidata": "Q3302441", "brand:wikipedia": "fr:Provigo", "name": "Maxi", "opening_hours": "Mo-Su 08:00-22:00", "operator": "Loblaw Companies Limited", "phone": "+1 514 948 2600", "shop": "supermarket", "wheelchair": "yes"}}, {"type": "node", "id": 1543768658, "lat": 45.4297244, "lon": -73.6349673, "tags": {"addr:city": "Lasalle", "addr:housenumber": "1880", "addr:postcode": "H8R1Y8", "addr:province": "QC", "addr:street": "Avenue Dollard", "branch": "Plus", "brand": "Metro", "brand:wikidata": "Q1145669", "brand:wikipedia": "en:Metro Inc.", "internet_access": "wlan", "name": "Metro", "opening_hours": "Mo-Su 08:00-22:00", "phone": "+1 514-364-3492", "shop": "supermarket", "website": "https://www.metro.ca/trouver-une-epicerie/170"}}, {"type": "node", "id": 1557712701, "lat": 45.5116804, "lon": -73.5667675, "tags": {"addr:housenumber": "17", "addr:postcode": "H2X 1G8", "addr:street": "Rue Ontario Est", "addr:street:en": "Ontario Street East", "check_date": "2024-06-27", "diet:halal": "yes", "name": "Super March\u00e9 New Madina", "opening_hours": "Mo-Su 09:30-21:30", "phone": "+1 514 849 0546", "shop": "grocery", "wheelchair": "no"}}, {"type": "node", "id": 1560846619, "lat": 45.480337, "lon": -73.5759951, "tags": {"addr:city": "Montr\u00e9al", "addr:housenumber": "147", "addr:postcode": "H3J 2J4", "addr:province": "QC", "addr:street": "Avenue Atwater", "brand": "Super C", "brand:wikidata": "Q3504127", "brand:wikipedia": "fr:Super C (entreprise)", "check_date:opening_hours": "2021-07-28", "name": "Super C", "opening_hours": "Mo-Su 08:00-23:00", "phone": "+1 514 939 3542", "shop": "supermarket", "website": "https://www.superc.ca/", "wheelchair": "yes"}}, {"type": "node", "id": 1564768777, "lat": 45.4951695, "lon": -73.8776618, "tags": {"addr:borough": "\u00cele-Bizard-Sainte-Genevi\u00e8ve", "addr:city": "Montr\u00e9al", "addr:housenumber": "640", "addr:province": "QC", "addr:street": "Boulevard Jacques-Bizard", "branch": "Extra", "brand": "IGA", "brand:wikidata": "Q3146662", "brand:wikipedia": "en:IGA (supermarkets)", "name": "IGA Extra L'\u00cele-Bizard Sevigny", "shop": "supermarket"}}, {"type": "node", "id": 1570269323, "lat": 45.5214683, "lon": -73.58966, "tags": {"name": "Rachelle-B\u00e9ry", "shop": "supermarket", "wheelchair": "yes"}}, {"type": "node", "id": 1571409554, "lat": 45.516865, "lon": -73.5788957, "tags": {"addr:city": "Montr\u00e9al", "addr:housenumber": "4001", "addr:postcode": "H2W 1V4", "addr:street": "Boulevard Saint-Laurent", "name": "Segal's Market", "opening_hours": "Mo-Fr 09:30-20:30; Sa 09:30-20:00", "organic": "yes", "payment:cash": "yes", "payment:coins": "yes", "payment:credit_cards": "yes", "payment:debit_cards": "yes", "phone": "+1-514-845-4716", "shop": "supermarket", "source": "survey", "wheelchair": "no"}}, {"type": "node", "id": 1571409723, "lat": 45.5159446, "lon": -73.5767971, "tags": {"addr:city": "Montr\u00e9al", "addr:housenumber": "3855", "addr:postcode": "H2W 1X9", "addr:province": "QC", "addr:street": "Boulevard Saint-Laurent", "check_date": "2023-08-06", "email": "info@Lavieilleeurope.com", "name": "La Vieille Europe", "opening_hours": "Mo-Sa 09:00-18:00; Su 09:00-17:00", "phone": "+1-514-842-5773", "shop": "supermarket", "website": "https://lavieilleeurope.com/", "wheelchair": "no"}}, {"type": "node", "id": 1573682008, "lat": 45.5195062, "lon": -73.5846704, "tags": {"addr:housename": "Sakaris", "addr:street": "Boulevard Saint-Laurent", "name": "Sabor Latino", "shop": "supermarket"}}, {"type": "node", "id": 1581924459, "lat": 45.5542518, "lon": -73.5871303}, {"type": "node", "id": 1595889651, "lat": 45.5794495, "lon": -73.6428325, "tags": {"addr:city": "Montr\u00e9al", "addr:housenumber": "10181", "addr:province": "QC", "addr:street": "Boulevard Saint-Michel", "brand": "Euro March\u00e9", "name": "Euro March\u00e9 Saint-Michel", "shop": "supermarket"}}, {"type": "node", "id": 1603025512, "lat": 45.4481334, "lon": -73.6175329, "tags": {"brand": "Maxi", "brand:wikidata": "Q3302441", "brand:wikipedia": "fr:Maxi (supermarch\u00e9)", "name": "Maxi", "operator": "Loblaw Companies Limited", "shop": "supermarket"}}, {"type": "node", "id": 1609248873, "lat": 45.5748835, "lon": -73.5831204, "tags": {"brand": "IGA", "brand:wikidata": "Q3146662", "brand:wikipedia": "en:IGA (supermarkets)", "name": "IGA", "shop": "supermarket"}}, {"type": "node", "id": 1621008922, "lat": 45.4668999, "lon": -73.5438562, "tags": {"brand": "Provigo", "brand:wikidata": "Q3408306", "brand:wikipedia": "fr:Provigo", "name": "Provigo", "opening_hours": "Mo-Fr 07:00-21:00; Sa,Su 08:00-21:00", "operator": "Loblaw Companies Limited", "shop": "supermarket"}}, {"type": "node", "id": 1656963715, "lat": 45.6071188, "lon": -73.5848209, "tags": {"branch": "Plus Groupe Messier", "brand": "Metro", "brand:wikidata": "Q1145669", "name": "Metro", "shop": "supermarket"}}, {"type": "node", "id": 1707629116, "lat": 45.5294486, "lon": -73.5776628, "tags": {"addr:housenumber": "1266", "addr:postcode": "H2J 1Y4", "addr:province": "QC", "addr:street": "Avenue du Mont-Royal Est", "addr:suburb": "Le Plateau-Mont-Royal", "name": "Les 3 Gourmets", "origin": "french", "shop": "grocery"}}, {"type": "node", "id": 1743393639, "lat": 45.5265773, "lon": -73.5899054, "tags": {"addr:city": "Montr\u00e9al", "addr:housenumber": "377", "addr:postcode": "H2T 1G7", "addr:province": "QC", "addr:street": "Avenue Laurier Est", "check_date": "2022-12-30", "name": "March\u00e9 Laurier", "operator": "March\u00e9 Laurier", "payment:mastercard": "yes", "payment:visa": "yes", "shop": "supermarket", "website": "https://www.marchelaurier.ca/"}}, {"type": "node", "id": 1743946282, "lat": 45.534206, "lon": -73.609505, "tags": {"addr:city": "Montr\u00e9al", "addr:housenumber": "274", "addr:postcode": "H2S 1L3", "addr:province": "QC", "addr:street": "Rue Saint-Zotique Est", "check_date:opening_hours": "2023-10-17", "name": "March\u00e9 Royal Plus", "opening_hours": "Mo-Su 08:00-21:00", "shop": "supermarket"}}, {"type": "node", "id": 1743953118, "lat": 45.5361019, "lon": -73.6138717, "tags": {"addr:housenumber": "280", "addr:street": "Place du March\u00e9-du-Nord", "check_date": "2023-03-24", "name": "March\u00e9 des saveurs", "name:fr": "March\u00e9 des saveurs du Qu\u00e9bec", "opening_hours": "Sa-We 09:00-18:00; Th-Fr 09:00-20:00", "payment:mastercard": "yes", "payment:visa": "yes", "shop": "supermarket"}}, {"type": "node", "id": 1751199518, "lat": 45.5399261, "lon": -73.6132764, "tags": {"addr:housenumber": "760", "addr:street": "Rue Jean-Talon Est", "brand": "Metro", "brand:wikidata": "Q1145669", "check_date": "2025-06-06", "internet_access": "no", "name": "Metro", "opening_hours": "08:00-22:00; Mo-Su 08:00-22:00", "operator": "March\u00e9 Bourdon et fille", "payment:cash": "yes", "payment:credit_cards": "yes", "payment:debit_cards": "yes", "payment:mastercard": "yes", "payment:visa": "yes", "phone": "+1 514-270-5226", "shop": "supermarket", "website": "https://metro.ca", "wheelchair": "yes"}}, {"type": "node", "id": 1768238807, "lat": 45.4374002, "lon": -73.6875573, "tags": {"addr:borough": "Lachine", "addr:city": "Montr\u00e9al", "addr:housenumber": "490", "addr:province": "QC", "addr:street": "28e Avenue", "brand": "IGA", "brand:wikidata": "Q3146662", "brand:wikipedia": "en:IGA (supermarkets)", "name": "IGA Extra Vall\u00e9e", "shop": "supermarket"}}, {"type": "node", "id": 1769555654, "lat": 45.5216806, "lon": -73.5699699, "tags": {"name": "March\u00e9 Richelieu", "shop": "supermarket"}}, {"type": "node", "id": 1843995390, "lat": 45.5066595, "lon": -73.6620412, "tags": {"addr:city": "Montr\u00e9al", "addr:housenumber": "2300", "addr:postcode": "H3R 2J8", "addr:street": "Chemin Lucerne", "brand": "Provigo", "brand:wikidata": "Q3408306", "brand:wikipedia": "fr:Provigo", "name": "Provigo", "phone": "+1-514-735-0731", "shop": "supermarket", "website": "https://www.provigo.ca/fr_CA/storedetail.2226.html"}}, {"type": "node", "id": 1922092015, "lat": 45.5208692, "lon": -73.6078448}, {"type": "node", "id": 1922092018, "lat": 45.5207369, "lon": -73.6075441}, {"type": "node", "id": 1922092019, "lat": 45.5204481, "lon": -73.6078029}, {"type": "node", "id": 1922092020, "lat": 45.5205797, "lon": -73.6081041}, {"type": "node", "id": 1924810251, "lat": 45.5065226, "lon": -73.8226909, "tags": {"addr:city": "Pierrefonds", "addr:housenumber": "11851", "addr:postcode": "H9A 1A1", "addr:street": "Boulevard de Pierrefonds", "brand": "Super C", "brand:wikidata": "Q3504127", "brand:wikipedia": "fr:Super C (entreprise)", "name": "Super C", "shop": "supermarket"}}, {"type": "node", "id": 2007315350, "lat": 45.4417698, "lon": -73.685756}, {"type": "node", "id": 2007315352, "lat": 45.4415553, "lon": -73.6861449}, {"type": "node", "id": 2007315353, "lat": 45.4417642, "lon": -73.6861395}, {"type": "node", "id": 2007315354, "lat": 45.4415628, "lon": -73.6857453}, {"type": "node", "id": 2047449791, "lat": 45.5382334, "lon": -73.6139453, "tags": {"addr:city": "Montr\u00e9al", "addr:housenumber": "7101", "addr:province": "QC", "addr:street": "Rue Saint-Denis", "check_date": "2023-03-04", "cuisine": "asian", "name": "March\u00e9 Oriental", "opening_hours": "9:30-19:30", "payment:interac": "yes", "payment:mastercard": "yes", "payment:visa": "yes", "phone": "+1 514-271-7878", "shop": "supermarket"}}, {"type": "node", "id": 2065473774, "lat": 45.4320917, "lon": -73.6470539, "tags": {"addr:housenumber": "400", "addr:postcode": "H8R 3H6", "addr:street": "Avenue Lafleur", "name": "Sami Fruits", "note": "sells only fruit and vegetables", "opening_hours": "Mo-Su 09:00-19:30; Tu off; Th,Fr 09:00-21:00", "shop": "supermarket"}}, {"type": "node", "id": 2079875312, "lat": 45.5243446, "lon": -73.6116384, "tags": {"name": "Motty's", "opening_hours:signed": "no", "shop": "supermarket"}}, {"type": "node", "id": 2151276112, "lat": 45.4933329, "lon": -73.6390601, "tags": {"addr:city": "Montr\u00e9al", "addr:housenumber": "4885", "addr:postcode": "H3W 1J2", "addr:province": "QC", "addr:street": "Avenue Van Horne", "brand": "IGA", "brand:wikidata": "Q3146662", "brand:wikipedia": "en:IGA (supermarkets)", "name": "IGA", "shop": "supermarket"}}, {"type": "node", "id": 2172009100, "lat": 45.4816812, "lon": -73.5774623, "tags": {"addr:city": "Montr\u00e9al", "addr:housenumber": "2733", "addr:street": "Rue Notre-Dame Ouest", "name": "March\u00e9 Bleuet", "opening_hours": "Mo,Tu 11:00-19:00; We-Fr 10:00-20:00; Sa 10:00-18:00; Su 11:00-17:00", "organic": "yes", "shop": "supermarket", "website": "https://www.marchebleuet.com/"}}, {"type": "node", "id": 2172009101, "lat": 45.4805158, "lon": -73.5795449, "tags": {"name": "March\u00e9 Branche d'Olivier", "organic": "yes", "phone": "+1-514-938-1818", "shop": "supermarket"}}, {"type": "node", "id": 2249495533, "lat": 45.5173858, "lon": -73.6441563, "tags": {"name": "Rachelle-B\u00e9ry", "shop": "supermarket"}}, {"type": "node", "id": 2305248783, "lat": 45.5506918, "lon": -73.5734619, "tags": {"addr:city": "Montr\u00e9al", "addr:floor": "G", "addr:housenumber": "3245", "addr:postcode": "H1Y 1Y4", "addr:province": "QC", "addr:street": "Rue Masson", "air_conditioning": "yes", "check_date": "2024-08-18", "contact:facebook": "https://www.facebook.com/AlimentationPoivreetSel/", "email": "info@alimentationpoivreetsel.com", "internet_access": "no", "level": "0", "name": "Alimentation Poivre & Sel", "opening_hours": "Mo-Fr 09:00-21:00; Sa,Su 09:00-19:00", "opening_hours:covid19": "Mo-Su 09:00-21:00", "organic": "yes", "payment:cash": "yes", "payment:credit_cards": "yes", "payment:debit_cards": "yes", "phone": "+1-514-722-8600", "shop": "supermarket", "wheelchair": "no"}}, {"type": "node", "id": 2329701447, "lat": 45.508439, "lon": -73.5604765, "tags": {"addr:city": "Montr\u00e9al", "addr:country": "CA", "addr:housenumber": "1071", "addr:province": "QC", "addr:street": "Boulevard Saint-Laurent", "check_date": "2024-07-11", "name": "\u00c9picerie Heng Heng Chanchaya", "origin": "asian", "phone": "+1 514 861 4550", "shop": "grocery", "wheelchair": "no"}}, {"type": "node", "id": 2332268381, "lat": 45.464001, "lon": -73.6287559, "tags": {"brand": "Provigo", "brand:wikidata": "Q3408306", "brand:wikipedia": "en:Provigo", "check_date": "2025-07-22", "name": "Provigo", "shop": "supermarket"}}, {"type": "node", "id": 2337836740, "lat": 45.5472366, "lon": -73.5433025}, {"type": "node", "id": 2337836741, "lat": 45.5472553, "lon": -73.5432965}, {"type": "node", "id": 2337836742, "lat": 45.5472892, "lon": -73.5433364}, {"type": "node", "id": 2337836743, "lat": 45.5473587, "lon": -73.5426914}, {"type": "node", "id": 2337836744, "lat": 45.5474214, "lon": -73.5427326}, {"type": "node", "id": 2337836745, "lat": 45.5474324, "lon": -73.5427798}, {"type": "node", "id": 2337836746, "lat": 45.5474637, "lon": -73.5427616}, {"type": "node", "id": 2337836747, "lat": 45.5474942, "lon": -73.5428475}, {"type": "node", "id": 2337836748, "lat": 45.5475036, "lon": -73.5431803}, {"type": "node", "id": 2337836749, "lat": 45.5475061, "lon": -73.5432009}, {"type": "node", "id": 2337836750, "lat": 45.5475485, "lon": -73.5431561}, {"type": "node", "id": 2337836751, "lat": 45.5475866, "lon": -73.5431295}, {"type": "node", "id": 2337841043, "lat": 45.5475636, "lon": -73.5430592}, {"type": "node", "id": 2379217346, "lat": 45.5096924, "lon": -73.6299903, "tags": {"addr:city": "Montr\u00e9al", "addr:housenumber": "6655", "addr:postcode": "H3S 2J6", "addr:province": "Qu\u00e9bec", "addr:street": "Avenue de Darlington", "cuisine": "asian", "name": "Super March\u00e9 International", "shop": "supermarket"}}, {"type": "node", "id": 2400999707, "lat": 45.5505418, "lon": -73.542856, "tags": {"brand": "Super C", "brand:wikidata": "Q3504127", "brand:wikipedia": "fr:Super C (entreprise)", "name": "Super C", "opening_hours": "Mo-Su 08:00-20:00", "shop": "supermarket", "wheelchair": "yes"}}, {"type": "node", "id": 2413854511, "lat": 45.5542086, "lon": -73.5394546}, {"type": "node", "id": 2413854512, "lat": 45.5542327, "lon": -73.5391597}, {"type": "node", "id": 2414566693, "lat": 45.5517452, "lon": -73.5336063, "tags": {"entrance": "main"}}, {"type": "node", "id": 2414566695, "lat": 45.5522126, "lon": -73.5335615}, {"type": "node", "id": 2414566696, "lat": 45.5521507, "lon": -73.5336019}, {"type": "node", "id": 2414566697, "lat": 45.5522047, "lon": -73.5337712}, {"type": "node", "id": 2414566699, "lat": 45.5521676, "lon": -73.5337954}, {"type": "node", "id": 2414566700, "lat": 45.5521756, "lon": -73.5340063}, {"type": "node", "id": 2414566702, "lat": 45.5519249, "lon": -73.5341694}, {"type": "node", "id": 2414566704, "lat": 45.552202, "lon": -73.5339031}, {"type": "node", "id": 2414566705, "lat": 45.5519906, "lon": -73.5341267, "tags": {"entrance": "yes"}}, {"type": "node", "id": 2419107217, "lat": 45.538625, "lon": -73.6006183, "tags": {"addr:housenumber": "1200", "addr:street": "Rue Beaubien Est", "branch": "March\u00e9 Tradition Barcelo", "check_date": "2025-09-13", "check_date:opening_hours": "2025-09-13", "name": "Les March\u00e9s Tradition", "opening_hours": "Mo-Su 08:00-23:00", "payment:interac": "yes", "payment:mastercard": "yes", "payment:visa": "yes", "phone": "+1 514 277 9516", "shop": "supermarket", "wheelchair": "yes"}}, {"type": "node", "id": 2428615791, "lat": 45.5181952, "lon": -73.5781112, "tags": {"addr:city": "Montr\u00e9al", "addr:housenumber": "130", "addr:street": "Avenue Duluth Est", "check_date": "2025-04-19", "name": "Soares et Fils", "opening_hours": "Mo-Th 08:00-20:00; Fr 08:00-20:00; Sa 08:00-19:00; Su off", "phone": "+1 514 288 2451", "shop": "grocery", "website": "https://www.facebook.com/SoaresBoucherie/"}}, {"type": "node", "id": 2429689308, "lat": 45.5392182, "lon": -73.6049183, "tags": {"addr:city": "Montr\u00e9al", "addr:housenumber": "6698", "addr:postcode": "H2S 2G8", "addr:street": "Avenue Christophe-Colomb", "name": "Vrac & bocaux", "name:fr": "Vrac & bocaux", "opening_hours": "Mo-Fr 09:00-20:00; Sa,Su 09:00-19:00", "phone": "+1-514-379-1007", "shop": "supermarket", "source": "NRCan-CanVec-10.0", "website": "https://www.vracetbocaux.ca/"}}, {"type": "node", "id": 2434459368, "lat": 45.5914207, "lon": -73.5364498}, {"type": "node", "id": 2434459374, "lat": 45.5911735, "lon": -73.5357226}, {"type": "node", "id": 2434459385, "lat": 45.5921487, "lon": -73.5350448}, {"type": "node", "id": 2434459394, "lat": 45.592396, "lon": -73.5357727}, {"type": "node", "id": 2493072792, "lat": 45.4931153, "lon": -73.5644522, "tags": {"addr:borough": "Griffintown", "addr:city": "Montr\u00e9al", "addr:housenumber": "1230", "addr:province": "QC", "addr:street": "Rue Notre-Dame Ouest", "branch": "Metro Plus", "brand": "Metro", "brand:wikidata": "Q1145669", "brand:wikipedia": "en:Metro Inc.", "name": "Metro Plus de la Montagne", "opening_hours": "Mo-Su 08:00-23:00", "operator": "Metro", "payment:cash": "yes", "payment:credit_cards": "yes", "payment:debit_cards": "yes", "payment:mastercard": "yes", "payment:visa": "yes", "shop": "supermarket", "wheelchair": "yes"}}, {"type": "node", "id": 2495372630, "lat": 45.4580918, "lon": -73.567295, "tags": {"check_date": "2024-08-16", "cuisine": "indian", "name": "Royal Indian Spices", "phone": "+1 514 767 2323", "shop": "grocery"}}, {"type": "node", "id": 2495455544, "lat": 45.4605039, "lon": -73.5673653, "tags": {"addr:housenumber": "4335", "addr:street": "Rue Wellington", "check_date": "2024-08-14", "cuisine": "asian", "name": "March\u00e9 Inter-Asia", "origin": "asian", "phone": "+1 514 768 9888", "shop": "grocery", "wheelchair": "no"}}, {"type": "node", "id": 2503358371, "lat": 45.5718632, "lon": -73.5714786}, {"type": "node", "id": 2503358373, "lat": 45.5722758, "lon": -73.5711142}, {"type": "node", "id": 2503358375, "lat": 45.5721322, "lon": -73.5707804}, {"type": "node", "id": 2503358377, "lat": 45.5720718, "lon": -73.5708292}, {"type": "node", "id": 2503358379, "lat": 45.5720102, "lon": -73.5706827}, {"type": "node", "id": 2503358381, "lat": 45.571725, "lon": -73.5709305}, {"type": "node", "id": 2503358384, "lat": 45.5717083, "lon": -73.5708947}, {"type": "node", "id": 2503358385, "lat": 45.5716546, "lon": -73.5709269}, {"type": "node", "id": 2503358387, "lat": 45.5717173, "lon": -73.5711419}, {"type": "node", "id": 2503414926, "lat": 45.552144, "lon": -73.5333467}, {"type": "node", "id": 2510830003, "lat": 45.495459, "lon": -73.6206655, "tags": {"addr:city": "Montr\u00e9al", "addr:housenumber": "5190A", "addr:postcode": "H3T 1X8", "addr:province": "Qu\u00e9bec", "addr:street": "Chemin de la C\u00f4te-des-Neiges", "cuisine": "west_african", "level": "-1", "name": "Le Baobab", "shop": "supermarket"}}, {"type": "node", "id": 2513505091, "lat": 45.4922884, "lon": -73.5819533, "tags": {"name": "Shengtang supermarch\u00e9", "shop": "supermarket"}}, {"type": "node", "id": 2513505093, "lat": 45.4904615, "lon": -73.5834703, "tags": {"addr:city": "Montr\u00e9al", "addr:housenumber": "2173", "addr:province": "QC", "addr:street": "Rue Sainte-Catherine Ouest", "brand": "March\u00e9 Adonis", "brand:wikidata": "Q20707426", "name": "March\u00e9 Adonis", "opening_hours": "Mo-Su 08:00-22:00", "phone": "+1-514-933-4747", "shop": "supermarket", "website": "https://groupeadonis.ca/", "wheelchair": "yes"}}, {"type": "node", "id": 2513513498, "lat": 45.4922182, "lon": -73.5830398, "tags": {"name": "Bonjour supermarch\u00e9", "opening_hours": "Mo-Su 10:00-20:30", "shop": "supermarket"}}, {"type": "node", "id": 2519396227, "lat": 45.489267, "lon": -73.586156, "tags": {"addr:city": "Montreal", "addr:country": "CA", "addr:housenumber": "1500", "addr:province": "ON", "addr:street": "Rue Atwater", "alt_name": "IGA Place Alexis Nihon", "brand": "IGA", "brand:wikidata": "Q3146662", "brand:wikipedia": "en:IGA (supermarkets)", "fax": "+1-514-933-4203", "name": "IGA Atwater", "opening_hours": "Mo-Su 07:00-22:00", "operator": "Sobeys", "payment:cash": "yes", "payment:credit_cards": "yes", "payment:mastercard": "yes", "phone": "+1-514-933-0995", "self_checkout": "yes", "shop": "supermarket", "store_ref": "8253", "website": "https://www.iga.net/en/find_a_store/store/8253-iga-atwater", "wheelchair": "yes"}}, {"type": "node", "id": 2778690136, "lat": 45.5567151, "lon": -73.6682722, "tags": {"addr:city": "Montr\u00e9al", "addr:housenumber": "10760", "addr:province": "QC", "addr:street": "Avenue Millen", "brand": "IGA", "brand:wikidata": "Q3146662", "brand:wikipedia": "en:IGA (supermarkets)", "name": "IGA", "opening_hours": "Mo-Su 08:00-21:00", "operator": "Alimentation Beaubien et fille", "shop": "supermarket"}}, {"type": "node", "id": 2823041841, "lat": 45.4282683, "lon": -73.6078831, "tags": {"brand": "Super C", "brand:wikidata": "Q3504127", "name": "Super C", "shop": "supermarket"}}, {"type": "node", "id": 2866844205, "lat": 45.460505, "lon": -73.5670771, "tags": {"addr:housenumber": "4342", "addr:street": "Rue Wellington", "branch": "Verdun", "check_date": "2024-08-14", "name": "March\u00e9 Branche d'Olivier", "opening_hours": "Mo-Fr 10:00-20:00; Sa 10:00-20:00; Su 10:00-18:00", "organic": "yes", "phone": "+1 514-768-5930", "shop": "grocery", "website": "https://www.branchedolivier.com/", "wheelchair": "no"}}, {"type": "node", "id": 2882563955, "lat": 45.593861, "lon": -73.5700751, "tags": {"brand": "Maxi", "brand:wikidata": "Q3302441", "brand:wikipedia": "fr:Maxi (supermarch\u00e9)", "name": "Maxi", "shop": "supermarket"}}, {"type": "node", "id": 2903373712, "lat": 45.5954474, "lon": -73.5739652, "tags": {"brand": "Super C", "brand:wikidata": "Q3504127", "brand:wikipedia": "fr:Super C (entreprise)", "name": "Super C", "shop": "supermarket"}}, {"type": "node", "id": 2976652458, "lat": 45.523746, "lon": -73.551452}, {"type": "node", "id": 2976652459, "lat": 45.5242423, "lon": -73.5510015}, {"type": "node", "id": 2976652460, "lat": 45.5244657, "lon": -73.551503}, {"type": "node", "id": 3013603657, "lat": 45.4520949, "lon": -73.5937735, "tags": {"addr:city": "Montr\u00e9al", "addr:housenumber": "6675", "addr:province": "QC", "addr:street": "Boulevard Monk", "brand": "IGA", "brand:wikidata": "Q3146662", "brand:wikipedia": "en:IGA (supermarkets)", "level": "0", "name": "IGA", "opening_hours": "Mo-Su 08:00-22:00", "shop": "supermarket", "website": "https://www.iga.net/fr/recherche_de_magasin/magasin/0396?utm_source=G&utm_medium=lpm&utm_campaign=SobeysMontreal", "wheelchair": "yes"}}, {"type": "node", "id": 3016922742, "lat": 45.5916339, "lon": -73.5363018, "tags": {"entrance": "yes"}}, {"type": "node", "id": 3025049129, "lat": 45.5032901, "lon": -73.6766953, "tags": {"addr:city": "Saint-Laurent", "addr:housenumber": "340", "addr:postcode": "H4M 2L4", "addr:street": "Boulevard Marcel-Laurin", "name": "Esposito Food Market Ltd", "phone": "+1-514-744-4942", "shop": "supermarket", "website": "http://espositofoods.com"}}, {"type": "node", "id": 3030009131, "lat": 45.527044, "lon": -73.6769978, "tags": {"addr:city": "Saint-Laurent", "addr:housenumber": "1320", "addr:postcode": "H4N 1X7", "addr:street": "Boulevard Jules-Poitras", "name": "Sami Fruits", "note": "Closed Mondays and Tuesdays.", "phone": "+1-514-856-1333", "shop": "supermarket", "website": "http://samifruits.com/"}}, {"type": "node", "id": 3030240009, "lat": 45.5187595, "lon": -73.7003848, "tags": {"addr:city": "Saint-Laurent", "addr:housenumber": "1999", "addr:postcode": "H4R 1K4", "addr:street": "Boulevard Marcel-Laurin", "name": "Marche Lian Tai", "phone": "+1-514-332-6166", "shop": "supermarket", "website": "https://www.marcheliantai.ca/", "wheelchair": "yes"}}, {"type": "node", "id": 3080851031, "lat": 45.5162299, "lon": -73.5586136, "tags": {"addr:housename": "Place Dupuis", "addr:housenumber": "865", "addr:street": "Rue Sainte-Catherine Est", "brand": "IGA", "brand:wikidata": "Q3146662", "brand:wikipedia": "en:IGA (supermarkets)", "name": "IGA", "opening_hours": "Mo-Su 08:00-22:00", "shop": "supermarket"}}, {"type": "node", "id": 3144740766, "lat": 45.521991, "lon": -73.5782061, "tags": {"addr:city": "Montr\u00e9al", "addr:housenumber": "505", "addr:street": "Rue Rachel Est", "check_date": "2025-09-12", "check_date:opening_hours": "2025-09-12", "name": "Rachelle Bery", "opening_hours": "Mo-Su 08:00-21:00", "organic": "yes", "payment:interac": "yes", "payment:mastercard": "yes", "payment:visa": "yes", "phone": "+1-514-524-0725", "shop": "supermarket", "website": "https://www.rachelle-bery.com/"}}, {"type": "node", "id": 3146864629, "lat": 45.4648445, "lon": -73.6550497, "tags": {"brand": "IGA", "brand:wikidata": "Q3146662", "brand:wikipedia": "en:IGA (supermarkets)", "name": "IGA", "opening_hours": "Mo-Su 08:00-22:00", "phone": "+1-514-486-3254", "shop": "supermarket", "website": "https://www.iga.net/en/find_a_store/store/0108-iga-lipari-cote-st-luc"}}, {"type": "node", "id": 3153219158, "lat": 45.4641971, "lon": -73.6460609, "tags": {"addr:city": "Montr\u00e9al", "addr:housenumber": "6945", "addr:street": "Avenue Mayfair", "name": "Marche Oasis", "opening_hours": "09:00-21:00", "shop": "supermarket", "website": "www.marcheoasis.com"}}, {"type": "node", "id": 3181155837, "lat": 45.5745701, "lon": -73.5916152, "tags": {"brand": "Walmart", "brand:wikidata": "Q483551", "brand:wikipedia": "fr:Walmart", "layer": "-1", "name": "Walmart Supercentre", "shop": "supermarket", "website": "https://www.walmart.ca/en/stores-near-me/st-leonard-w-1183", "website:en": "https://www.walmart.ca/en/stores-near-me/st-leonard-w-1183", "website:fr": "https://www.walmart.ca/fr/magasins-pres-de-chez-moi/st-leonard-w-1183"}}, {"type": "node", "id": 3477934940, "lat": 45.491297, "lon": -73.5824025}, {"type": "node", "id": 3477934941, "lat": 45.4913777, "lon": -73.5828628}, {"type": "node", "id": 3477934942, "lat": 45.4914855, "lon": -73.5827358}, {"type": "node", "id": 3477934943, "lat": 45.4911839, "lon": -73.5825358}, {"type": "node", "id": 3477945716, "lat": 45.4913314, "lon": -73.5827905}, {"type": "node", "id": 3477945894, "lat": 45.4912592, "lon": -73.5826629}, {"type": "node", "id": 3493656462, "lat": 45.4789756, "lon": -73.6026164, "tags": {"brand": "Metro", "brand:wikidata": "Q1145669", "name": "Metro", "shop": "supermarket", "wheelchair": "yes"}}, {"type": "node", "id": 3552225324, "lat": 45.5032197, "lon": -73.6363196, "tags": {"addr:housenumber": "3588", "addr:street": "Rue Goyer", "name": "Kim Phat", "origin": "asian", "shop": "supermarket"}}, {"type": "node", "id": 3567183439, "lat": 45.4706196, "lon": -73.6164985, "tags": {"name": "Esposito", "shop": "supermarket"}}, {"type": "node", "id": 3581007414, "lat": 45.6027598, "lon": -73.6347962, "tags": {"addr:city": "Montr\u00e9al-Nord", "addr:housenumber": "11701", "addr:postcode": "H1G 5W2", "addr:street": "Avenue Pigeon", "level": "0", "name": "March\u00e9 Irma", "shop": "supermarket"}}, {"type": "node", "id": 3603864504, "lat": 45.5296393, "lon": -73.5904641}, {"type": "node", "id": 3603864507, "lat": 45.5302318, "lon": -73.5910243}, {"type": "node", "id": 3603864509, "lat": 45.529989, "lon": -73.5912457}, {"type": "node", "id": 3608602520, "lat": 45.5275236, "lon": -73.5792315}, {"type": "node", "id": 3649167896, "lat": 45.5205138, "lon": -73.5986816, "tags": {"addr:city": "Montr\u00e9al", "addr:housenumber": "5242", "addr:postcode": "H2V 4G9", "addr:province": "QC", "addr:street": "Avenue du Parc", "automatic_door": "yes", "check_date": "2024-10-17", "name": "Supermarch\u00e9 PA", "payment:mastercard": "yes", "payment:visa": "yes", "phone": "+1 514-273-8782", "shop": "supermarket", "website": "https://www.supermarchepa.com/", "wheelchair": "yes"}}, {"type": "node", "id": 3649353853, "lat": 45.5225184, "lon": -73.6025278, "tags": {"addr:city": "Montr\u00e9al", "addr:housenumber": "5573", "addr:postcode": "H2V 4H2", "addr:province": "Qu\u00e9bec", "addr:street": "Avenue du Parc", "check_date": "2024-10-17", "diet:kosher": "yes", "name": "Lipa's", "phone": "+1 514-272-6732", "shop": "supermarket"}}, {"type": "node", "id": 3649363634, "lat": 45.5236458, "lon": -73.601115, "tags": {"addr:city": "Montr\u00e9al", "addr:housenumber": "185", "addr:postcode": "H2T 2L4", "addr:province": "Qu\u00e9bec", "addr:street": "Rue Saint-Viateur Ouest", "check_date": "2024-10-16", "name": "\u00c9picerie Latina", "organic": "yes", "phone": "+1 514-273-6561", "shop": "supermarket", "website": "https://www.chezlatina.com/", "wheelchair": "yes"}}, {"type": "node", "id": 3685734271, "lat": 45.5023823, "lon": -73.636966, "tags": {"name": "March\u00e9 Fu Tai", "origin": "asian", "shop": "supermarket"}}, {"type": "node", "id": 3780905699, "lat": 45.5454985, "lon": -73.544762, "tags": {"addr:city": "Montr\u00e9al", "addr:housenumber": "3623", "addr:postcode": "H1W 1R9", "addr:province": "QC", "addr:street": "Ontario Est", "check_date": "2024-12-18", "check_date:opening_hours": "2024-12-18", "contact:phone": "+1-514-528-7295", "contact:website": "http://www.alimentsmerci.com", "name": "Aliments Merci", "opening_hours": "Mo-Fr 09:00-19:00; Sa 09:00-17:00; Su 10:00-17:00", "operator": "Aliments Merci", "organic": "yes", "payment:cash": "yes", "payment:credit_cards": "yes", "payment:debit_cards": "yes", "payment:mastercard": "yes", "payment:visa": "yes", "shop": "supermarket"}}, {"type": "node", "id": 3948789656, "lat": 45.6046037, "lon": -73.5515273, "tags": {"brand": "Metro", "brand:wikidata": "Q1145669", "name": "Metro", "shop": "supermarket"}}, {"type": "node", "id": 4063568346, "lat": 45.4279328, "lon": -73.6287235, "tags": {"addr:city": "Lasalle", "addr:housenumber": "1583", "addr:province": "Quebec", "addr:street": "Avenue Dollard", "contact:facebook": "https://www.facebook.com/people/Fruiterie-Dollard/100063471342710/", "name": "Fruiterie Dollard", "opening_hours": "Mo-Th 08:00-19:00, Fr 08:00-20:00, Sa,Su 08:00-18:00", "phone": "+1-514-595-9644", "shop": "supermarket", "website": "https://fruiteriedollard.com/"}}, {"type": "node", "id": 4307842926, "lat": 45.4884853, "lon": -73.5661101, "tags": {"addr:city": "Montr\u00e9al", "addr:housenumber": "333", "addr:postcode": "H3J 1T9", "addr:province": "QC", "addr:street": "Rue Richmond", "check_date": "2023-06-23", "name": "Le Richmond - March\u00e9 italien", "opening_hours": "Mo-Su 08:30-21:00", "shop": "supermarket", "wheelchair": "no"}}, {"type": "node", "id": 4327607245, "lat": 45.5948348, "lon": -73.5695801, "tags": {"addr:city": "Montr\u00e9al", "addr:housenumber": "6852", "addr:postcode": "H1S 1N1", "addr:province": "Qu\u00e9bec", "addr:street": "Rue Jean-Talon Est", "name": "La Lumi\u00e9re Bonanza", "shop": "supermarket"}}, {"type": "node", "id": 4327631261, "lat": 45.5987309, "lon": -73.5593867}, {"type": "node", "id": 4365342790, "lat": 45.476348, "lon": -73.6670658, "tags": {"addr:housenumber": "5800", "addr:postcode": "H4W 2T5", "addr:street": "Boulevard Cavendish", "brand": "IGA", "brand:wikidata": "Q3146662", "brand:wikipedia": "en:IGA (supermarkets)", "name": "IGA", "opening_hours": "Mo-Su 08:00-21:00", "shop": "supermarket", "website": "https://www.iga.net/en/find_a_store/store/8111-iga-alimentation-shnaidman-paganocavendish"}}, {"type": "node", "id": 4368685569, "lat": 45.4706539, "lon": -73.6352544, "tags": {"addr:city": "Montr\u00e9al", "addr:housenumber": "6270", "addr:postcode": "H3X 2B6", "addr:province": "Qu\u00e9bec", "addr:street": "Avenue Somerled", "name": "Fruiterie NDG", "shop": "supermarket"}}, {"type": "node", "id": 4369987298, "lat": 45.4618374, "lon": -73.6229459, "tags": {"addr:city": "Montr\u00e9al", "addr:housenumber": "6496", "addr:street": "St-Jacques Ouest", "name": "Supermarche Akhavan", "payment:cash": "yes", "payment:credit_cards": "yes", "phone": "+1-514-485-4887", "shop": "supermarket", "website": "https://www.akhavanfood.com/"}}, {"type": "node", "id": 4371588174, "lat": 45.5415386, "lon": -73.6260468, "tags": {"addr:city": "Montr\u00e9al", "addr:housenumber": "7890", "addr:postcode": "H2R 2E8", "addr:province": "Qu\u00e9bec", "addr:street": "Rue Saint-Denis", "brand": "March\u00e9 Richelieu", "brand:wikidata": "Q128619218", "name": "March\u00e9 Richelieu Chauvin", "opening_hours": "Mo-Su 08:00-21:00", "phone": "+1-514-271-7367", "shop": "supermarket", "website": "https://www.marcherichelieu.ca/nous-trouver/marche-richelieu-marche-chauvin"}}, {"type": "node", "id": 4402725301, "lat": 45.4941437, "lon": -73.5589069, "tags": {"addr:city": "Montr\u00e9al", "addr:housenumber": "225", "addr:postcode": "H3C 2G6", "addr:province": "Qu\u00e9bec", "addr:street": "Rue Peel", "brand": "March\u00e9 Adonis", "brand:fr": "March\u00e9 Adonis", "brand:wikidata": "Q20707426", "brand:wikipedia": "fr:March\u00e9 Adonis", "level": "1", "name": "March\u00e9 Adonis", "name:fr": "March\u00e9 Adonis", "opening_hours": "Mo-Fr 08:00-22:00; Sa-Su 08:00-21:00", "operator": "Metro", "payment:cash": "yes", "payment:credit_cards": "yes", "payment:debit_cards": "yes", "payment:mastercard": "yes", "payment:visa": "yes", "phone": "+1-514-905-6499", "shop": "supermarket", "website": "https://www.groupeadonis.ca/nous-trouver/marche-adonis-griffintown", "wheelchair": "yes"}}, {"type": "node", "id": 4459609771, "lat": 45.5179743, "lon": -73.5563841, "tags": {"addr:city": "Montr\u00e9al", "addr:housenumber": "1150", "addr:postcode": "H2L 2G7", "addr:province": "Qu\u00e9bec", "addr:street": "Rue Sainte-Catherine Est", "check_date:opening_hours": "2025-07-21", "name": "Rachelle Berry", "opening_hours": "Mo-Su 08:00-21:00", "operator": "Rachelle Berry", "shop": "supermarket", "wheelchair": "yes"}}, {"type": "node", "id": 4463965094, "lat": 45.5312825, "lon": -73.5656048, "tags": {"addr:city": "Montr\u00e9al", "addr:housenumber": "2008", "addr:postcode": "H2K 1A7", "addr:province": "Qu\u00e9bec", "addr:street": "Rue Gauthier", "name": "March\u00e9 Metro Bigras", "shop": "supermarket"}}, {"type": "node", "id": 4466280117, "lat": 45.5719669, "lon": -73.6046177, "tags": {"addr:city": "Montr\u00e9al", "addr:housenumber": "8200", "addr:province": "QC", "addr:street": "Boulevard Pie-IX", "brand": "Super C", "brand:wikidata": "Q3504127", "brand:wikipedia": "fr:Super C (entreprise)", "name": "Super C", "shop": "supermarket"}}, {"type": "node", "id": 4486031790, "lat": 45.5352747, "lon": -73.568836, "tags": {"addr:city": "Montr\u00e9al", "addr:housenumber": "2196", "addr:postcode": "H2H 1M8", "addr:province": "Qu\u00e9bec", "addr:street": "Rue Marie-Anne Est", "name": "D\u00e9panneur Circle", "shop": "supermarket"}}, {"type": "node", "id": 4569089022, "lat": 45.579281, "lon": -73.6445157, "tags": {"name": "March\u00e9 d'Alimentation des Cara\u00efbes", "shop": "supermarket"}}, {"type": "node", "id": 4692493589, "lat": 45.5312467, "lon": -73.5763493, "tags": {"addr:housenumber": "1475", "addr:street": "Avenue du Mont-Royal Est", "email": "bleuetpersille@gmail.com", "name": "Bleu & Persill\u00e9", "name:fr": "Bleu & Persill\u00e9", "opening_hours": "Tu-Sa 10:00-19:00; Su-Mo 11:00-18:00", "phone": "+1-438-386-1475", "shop": "supermarket", "website": "https://bleuetpersille.ca"}}, {"type": "node", "id": 4739781963, "lat": 45.5155659, "lon": -73.6954182, "tags": {"brand": "Super C", "brand:wikidata": "Q3504127", "brand:wikipedia": "en:Super C (supermarket)", "name": "Super C", "opening_hours": "Mo-Su 08:00-22:00", "shop": "supermarket"}}, {"type": "node", "id": 4740493526, "lat": 45.5038179, "lon": -73.7788569, "tags": {"name": "March\u00e9 West Island", "shop": "supermarket"}}, {"type": "node", "id": 4831496721, "lat": 45.4973452, "lon": -73.6490503, "tags": {"description": "Asian supermarket.", "name": "Marche Newon", "name:en": "Newon Market", "payment:cash": "yes", "payment:credit_cards": "yes", "payment:debit_cards": "yes", "shop": "supermarket", "toilets:wheelchair": "no", "website": "https://www.marchenewon.com/", "wheelchair": "yes"}}, {"type": "node", "id": 4908111008, "lat": 45.4608278, "lon": -73.5673203, "tags": {"addr:housenumber": "4307", "addr:street": "Rue Wellington", "level": "0", "name": "March\u00e9 La Gazelle", "opening_hours": "Mo-Su 09:00-20:00", "shop": "grocery", "wheelchair": "no"}}, {"type": "node", "id": 4908111019, "lat": 45.4644196, "lon": -73.5670048, "tags": {"addr:city": "Montr\u00e9al", "addr:housenumber": "3939", "addr:province": "QC", "addr:street": "Rue Wellington", "branch": "740", "brand": "Bulk Barn", "brand:wikidata": "Q4996466", "bulk_purchase": "only", "check_date": "2024-08-05", "name": "Bulk Barn", "opening_hours": "Mo-Fr 09:30-20:30; Sa 09:30-17:00; Su 10:00-17:00", "phone": "+1 514 767 3572", "reusable_packaging:accept": "yes", "reusable_packaging:offer": "yes", "shop": "supermarket", "wheelchair": "yes", "zero_waste": "yes"}}, {"type": "node", "id": 4908111137, "lat": 45.4656919, "lon": -73.5668906, "tags": {"addr:housenumber": "3819", "addr:street": "Rue Wellington", "check_date": "2024-08-04", "name": "Chez Robin", "opening_hours": "Mo-Su 08:00-21:00", "organic": "yes", "phone": "+1 438 387 7789", "shop": "grocery", "website": "http://www.chezrobin.com/", "wheelchair": "yes", "zero_waste": "yes"}}, {"type": "node", "id": 4927611326, "lat": 45.6534038, "lon": -73.5093758, "tags": {"brand": "Maxi", "brand:wikidata": "Q3302441", "brand:wikipedia": "fr:Maxi (supermarch\u00e9)", "name": "Maxi", "name:en": "Maxi", "name:fr": "Maxi", "shop": "supermarket", "wheelchair": "yes"}}, {"type": "node", "id": 4927613921, "lat": 45.6552596, "lon": -73.5116643, "tags": {"brand": "Super C", "brand:wikidata": "Q3504127", "name": "Super C", "name:en": "Super C", "name:fr": "Super C", "shop": "supermarket", "wheelchair": "yes"}}, {"type": "node", "id": 5002331086, "lat": 45.4993424, "lon": -73.707085, "tags": {"brand": "March\u00e9 Adonis", "brand:wikidata": "Q20707426", "building": "retail", "internet_access": "wlan", "name": "March\u00e9 Adonis", "phone": "+1-514-904-6789", "shop": "supermarket", "website": "https://groupeadonis.ca/", "wheelchair": "yes"}}, {"type": "node", "id": 5093061421, "lat": 45.532929, "lon": -73.614815, "tags": {"addr:housenumber": "6896", "addr:street": "Boulevard Saint-Laurent", "check_date": "2023-03-04", "name": "Milano", "name:fr": "Milano", "opening_hours": "Mo-We 08:00-18:00; Th-Fr 08:00-21:00; Sa-Su 08:00-17:00", "payment:interac": "yes", "payment:mastercard": "yes", "payment:visa": "yes", "shop": "supermarket", "website": "https://fruiteriemilano.com"}}, {"type": "node", "id": 5111290868, "lat": 45.5449903, "lon": -73.5447235, "tags": {"addr:housenumber": "3580", "addr:street": "Rue Ontario Est", "description": "Magasin g\u00e9n\u00e9ral \u00e9cologique : nettoyage, alimentation, jardin, produits pour b\u00e9b\u00e9...", "name": "Terre \u00e0 soi", "opening_hours": "Mo-We 10:00-18:00; Th,Fr 10:00-19:00; Sa,Su 10:00-17:00", "payment:debit_cards": "yes", "payment:visa": "yes", "phone": "+1-514-759-8772", "shop": "supermarket", "website": "https://www.terreasoi.ca/"}}, {"type": "node", "id": 5111500547, "lat": 45.545874, "lon": -73.5440781, "tags": {"addr:city": "Montreal", "addr:housenumber": "3668", "addr:province": "QC", "addr:street": "Rue Ontario Est", "alt_name": "Sabor del sur", "cuisine": "mexican", "facebook": "https://www.facebook.com/%C3%89picerie-caf%C3%A9-marco-rosa-1890583944504679/", "name": "\u00c9picerie caf\u00e9 Marco Rosa", "phone": "+1-514-657-4668", "shop": "grocery", "wheelchair": "no"}}, {"type": "node", "id": 5217188863, "lat": 45.5237936, "lon": -73.6917778, "tags": {"name": "Les Escomptes St-Jean", "shop": "supermarket"}}, {"type": "node", "id": 5217244801, "lat": 45.5175759, "lon": -73.7150229, "tags": {"addr:borough": "Saint-Laurent", "addr:city": "Montr\u00e9al", "addr:housenumber": "5600", "addr:province": "QC", "addr:street": "Boulevard Henri-Bourassa Ouest", "branch": "Extra", "brand": "IGA", "brand:wikidata": "Q3146662", "brand:wikipedia": "en:IGA (supermarkets)", "name": "IGA Extra Famille Duchemin Saint-Laurent", "shop": "supermarket"}}, {"type": "node", "id": 5255444610, "lat": 45.4918948, "lon": -73.6528402, "tags": {"brand": "Walmart", "brand:wikidata": "Q483551", "brand:wikipedia": "fr:Walmart", "name": "Walmart Supercentre", "shop": "supermarket", "website": "https://www.walmart.ca/en/stores-near-me/cote-st-luc-qc-3165", "website:en": "https://www.walmart.ca/en/stores-near-me/cote-st-luc-qc-3165", "website:fr": "https://www.walmart.ca/fr/magasins-pres-de-chez-moi/cote-st-luc-qc-3165"}}, {"type": "node", "id": 5269009611, "lat": 45.5156897, "lon": -73.6834133, "tags": {"brand": "Provigo", "brand:wikidata": "Q3408306", "name": "Provigo", "shop": "supermarket"}}, {"type": "node", "id": 5296252703, "lat": 45.4599571, "lon": -73.6630943, "tags": {"addr:city": "C\u00f4te-Saint-Luc", "addr:housenumber": "5555", "addr:postcode": "H4W 2J2", "addr:province": "QC", "addr:street": "Westminster Avenue", "name": "Epicure Market", "shop": "supermarket"}}, {"type": "node", "id": 5296295591, "lat": 45.4966268, "lon": -73.6541696, "tags": {"addr:city": "Montr\u00e9al", "addr:housenumber": "5252", "addr:postcode": "H4P 1P5", "addr:province": "QC", "addr:street": "Rue Par\u00e9", "description": "European supermarket.", "name": "March\u00e9 Epicure", "name:en": "Epicure Market", "shop": "supermarket"}}, {"type": "node", "id": 5472246122, "lat": 45.4965189, "lon": -73.5703327, "tags": {"addr:city": "Montr\u00e9al", "addr:housenumber": "1275", "addr:province": "Qu\u00e9bec", "addr:street": "Avenue des Canadiens-de-Montr\u00e9al", "addr:unit": "200", "brand": "Provigo", "brand:wikidata": "Q3408306", "brand:wikipedia": "fr:Provigo", "name": "Provigo", "opening_hours": "Mo-Su 08:00-21:00", "phone": "+1 514 934-1261", "shop": "supermarket", "website": "https://www.provigo.ca/store-locator/details/8464"}}, {"type": "node", "id": 5474438748, "lat": 45.5197269, "lon": -73.6742745, "tags": {"automatic_door": "yes", "branch": "C\u00f4te Vertu", "brand": "Metro", "brand:wikidata": "Q1145669", "brand:wikipedia": "fr:Metro (entreprise qu\u00e9b\u00e9coise)", "entrance": "yes", "fax": "+1-514-747-9951", "name": "Metro", "phone": "+1-514-747-3145", "shop": "supermarket", "website": "https://www.metro.ca/trouver-une-epicerie/168", "wheelchair": "yes"}}, {"type": "node", "id": 5527782636, "lat": 45.4759935, "lon": -73.6229065, "tags": {"addr:city": "Montr\u00e9al", "addr:housenumber": "5595", "addr:street": "Avenue de Monkland", "brand": "Provigo", "brand:wikidata": "Q3408306", "name": "Provigo", "shop": "supermarket", "source": "survey"}}, {"type": "node", "id": 5544176196, "lat": 45.4962169, "lon": -73.5781516, "tags": {"addr:city": "Montr\u00e9al", "addr:housenumber": "1440", "addr:postcode": "H3G 2J1", "addr:province": "Qu\u00e9bec", "addr:street": "Rue Mackay", "check_date:opening_hours": "2025-10-25", "name": "Le frigo vert", "note": "Heures d'ouverture lundi \u00e0 vendredi 10h-16h durant la gr\u00e8ve STM de novembre 2025", "opening_hours": "Mo-Th 12:00-18:00; Fr-Su off", "payment:cash": "yes", "payment:credit_cards": "yes", "payment:debit_cards": "yes", "shop": "supermarket", "website": "http://www.lefrigovert.com", "wheelchair": "yes"}}, {"type": "node", "id": 5585561447, "lat": 45.451465, "lon": -73.5724283, "tags": {"addr:housenumber": "5589", "addr:street": "Rue de Verdun", "check_date": "2023-06-14", "description": "Boucherie et \u00e9picerie fine.", "name": "March\u00e9 Tondreau", "opening_hours": "Mo-Fr 07:00-19:00; Sa, Su 07:00-18:00", "phone": "+1-514-761-0976", "shop": "supermarket", "website": "facebook.com/marchetondreau"}}, {"type": "node", "id": 5596564296, "lat": 45.4572232, "lon": -73.5719943, "tags": {"addr:housenumber": "4829", "addr:street": "Rue de Verdun", "check_date": "2024-08-19", "cuisine": "asian", "name": "March\u00e9 C&C", "opening_hours": "Mo-Su 09:00-21:30", "phone": "+1-514-769-7866", "shop": "supermarket", "wheelchair": "no"}}, {"type": "node", "id": 5600627687, "lat": 45.4570211, "lon": -73.5673382, "tags": {"addr:housenumber": "4828", "addr:street": "Rue Wellington", "name": "Jardins Wellington", "opening_hours": "Mo-Fr 10:00-22:00; Sa, Su 10:00-21:00", "shop": "supermarket"}}, {"type": "node", "id": 5601046307, "lat": 45.459636, "lon": -73.567436, "tags": {"addr:housenumber": "4437", "addr:street": "Rue Wellington", "branch": "Verdun", "bulk_purchase": "only", "check_date": "2024-08-14", "name": "\u00c9picerie LOCO", "opening_hours": "Mo-Fr 10:00-19:30; Sa-Su 09:00-19:00", "organic": "yes", "phone": "+1 438 476 4794", "reusable_packaging:accept": "yes", "reusable_packaging:offer": "yes", "shop": "supermarket", "website": "https://www.epicerieloco.ca/loco-verdun/", "wheelchair": "yes", "zero_waste": "only"}}, {"type": "node", "id": 5693254304, "lat": 45.5269344, "lon": -73.5586247, "tags": {"addr:city": "Montr\u00e9al", "addr:housenumber": "1905", "addr:postcode": "H2L 1S7", "addr:province": "Quebec", "addr:street": "Rue Ontario Est", "check_date": "2024-07-01", "name": "March\u00e9 D&T", "shop": "supermarket", "wheelchair": "yes"}}, {"type": "node", "id": 5702960692, "lat": 45.5323628, "lon": -73.5749196, "tags": {"addr:housenumber": "1670", "addr:street": "Avenue du Mont-Royal Est", "branch": "Mont-Royal", "brand": "Intermarch\u00e9", "brand:wikidata": "Q3153200", "check_date": "2024-08-14", "internet_access": "no", "level": "0", "name": "Intermarch\u00e9", "opening_hours": "Mo-Sa 07:00-24:00; Su 07:00-23:00", "payment:credit_cards": "yes", "phone": "+1-514-526-2656", "shop": "supermarket", "website": "https://www.lintermarche.ca/find-store/?location=LCL0008122", "wheelchair": "no"}}, {"type": "node", "id": 5702960704, "lat": 45.5305688, "lon": -73.5766075, "tags": {"addr:housenumber": "1376", "addr:street": "Avenue du Mont-Royal Est", "check_date": "2023-09-06", "internet_access": "no", "level": "0", "name": "March\u00e9 Branche d'Olivier", "opening_hours": "Mo-We,Sa 10:00-20:00;Th-Fr 10:00-21:00;Su 10:00-18:00", "payment:mastercard": "yes", "payment:visa": "yes", "phone": "+1 514 524 4440", "shop": "supermarket", "wheelchair": "limited"}}, {"type": "node", "id": 5720825170, "lat": 45.5324351, "lon": -73.5748648, "tags": {"addr:housenumber": "1678", "addr:street": "Avenue du Mont-Royal Est", "check_date": "2024-08-14", "name": "Top discount \u00c9picerie Fran\u00e7aise", "opening_hours": "10:00-19:00", "origin": "french", "shop": "grocery"}}, {"type": "node", "id": 5747076107, "lat": 45.5077747, "lon": -73.5596294, "tags": {"addr:housenumber": "1006", "addr:street": "Boulevard Saint-Laurent", "contact:facebook": "https://m.facebook.com/p/GD-supermarket%E5%AE%B6%E4%B9%90%E7%A6%8F%E8%B6%85%E5%B8%82-100063641514493/", "level": "-1", "name": "March\u00e9 G&D", "opening_hours": "Mo-Su 09:00-21:00", "shop": "supermarket", "website": "https://gdsupermarche.com"}}, {"type": "node", "id": 5765927204, "lat": 45.5273375, "lon": -73.7196847, "tags": {"name": "March\u00e9 C&T", "shop": "supermarket"}}, {"type": "node", "id": 5792743140, "lat": 45.4318756, "lon": -73.6167943, "tags": {"addr:city": "Lasalle", "addr:housenumber": "1255", "addr:postcode": "H8N 1N8", "addr:province": "QC", "addr:street": "Boul. Shevchenko", "name": "Frutta Si", "opening_hours": "Mo-We 08:00-20:00; Th, Fr 08:00-21:00; Sa 08:00-18:00; Su 08:00-17:00", "phone": "+1-514-595-9111", "shop": "supermarket", "website": "https://www.marchefruttasi.com/"}}, {"type": "node", "id": 5807736078, "lat": 45.5262062, "lon": -73.5810771, "tags": {"addr:housenumber": "819", "addr:street": "Avenue du Mont-Royal Est", "check_date": "2024-05-19", "cuisine": "french", "level": "0", "name": "L'Hexagone", "shop": "grocery", "website": "https://www.instagram.com/hexagonemtl/"}}, {"type": "node", "id": 5816010709, "lat": 45.5284609, "lon": -73.5789616, "tags": {"addr:housenumber": "1133", "addr:street": "Avenue du Mont-Royal Est", "check_date": "2024-05-14", "name": "Sal\u00e9 Sucr\u00e9", "opening_hours": "Mo-We 10:00-18:30; Th-Fr 10:00-21:00; Sa-Su 10:00-18:00", "phone": "+1 514 527 1133", "shop": "grocery", "website": "http://salesucre.ca/", "wheelchair": "no"}}, {"type": "node", "id": 5891509621, "lat": 45.5543869, "lon": -73.5875783}, {"type": "node", "id": 5891509623, "lat": 45.5539246, "lon": -73.5874164}, {"type": "node", "id": 5891509624, "lat": 45.5540133, "lon": -73.5876997}, {"type": "node", "id": 5891509625, "lat": 45.5541092, "lon": -73.5876442}, {"type": "node", "id": 5891509626, "lat": 45.5541328, "lon": -73.5877316}, {"type": "node", "id": 5891726661, "lat": 45.5342791, "lon": -73.5734725, "tags": {"addr:housenumber": "1957", "addr:street": "Avenue du Mont-Royal Est", "check_date": "2023-08-09", "diet:halal": "no", "diet:kosher": "no", "level": "0", "name": "William J. Walter Saucissier", "opening_hours": "Mo-We,Sa-Su 10:00-20:00;Th-Fr 10:00-21:00", "payment:credit_cards": "yes", "payment:debit_cards": "yes", "payment:mastercard": "yes", "payment:visa": "yes", "shop": "supermarket", "wheelchair": "yes"}}, {"type": "node", "id": 5914877675, "lat": 45.5246052, "lon": -73.7107615, "tags": {"addr:city": "Montr\u00e9al", "addr:housenumber": "11847", "addr:postcode": "H4J 2M3", "addr:province": "Quebec", "addr:street": "Rue Lachapelle", "name": "Euro March\u00e9 Latina 80", "operator": "Euro March\u00e9 Latina 80", "payment:cash": "yes", "payment:coins": "yes", "payment:credit_cards": "yes", "shop": "supermarket"}}, {"type": "node", "id": 6061702592, "lat": 45.5149051, "lon": -73.5742246, "tags": {"addr:city": "Montr\u00e9al", "addr:housenumber": "3695", "addr:postcode": "H2X 2V7", "addr:province": "QC", "addr:street": "Boulevard Saint-Laurent", "check_date": "2023-08-06", "level": "0", "name": "La Main - March\u00e9s Tradition", "payment:cash": "yes", "payment:coins": "yes", "payment:credit_cards": "yes", "payment:debit_cards": "yes", "shop": "supermarket"}}, {"type": "node", "id": 6283043210, "lat": 45.4843454, "lon": -73.628864, "tags": {"addr:city": "Montr\u00e9al", "addr:housenumber": "5251", "addr:postcode": "H3W 1Y3", "addr:province": "QC", "addr:street": "Chemin Queen Mary", "name": "Fruiterie Mont-Carmel", "opening_hours": "Sa-We 08:00-20:00; Th-Fr 08:00-21:00", "shop": "supermarket"}}, {"type": "node", "id": 6329826445, "lat": 45.6063748, "lon": -73.6116456, "tags": {"brand": "IGA", "brand:wikidata": "Q3146662", "name": "IGA", "shop": "supermarket"}}, {"type": "node", "id": 6520969422, "lat": 45.5275401, "lon": -73.615596, "tags": {"diet:kosher": "only", "name": "Fooderie", "shop": "supermarket"}}, {"type": "node", "id": 6528172285, "lat": 45.5069118, "lon": -73.5688858, "tags": {"name": "FOU D'ICi", "opening_hours": "Mo-Sa 08:00-20:00", "shop": "supermarket"}}, {"type": "node", "id": 6543197136, "lat": 45.4923426, "lon": -73.5627262, "tags": {"addr:city": "Montr\u00e9al", "addr:housenumber": "319", "addr:postcode": "H3C0S6", "addr:province": "Qu\u00e9bec", "addr:street": "Rue de la Montagne", "name": "Allons Vert", "opening_hours": "Mo-Fr 10:00-18:00", "organic": "only", "shop": "supermarket", "start_date": "2019-07-13"}}, {"type": "node", "id": 6653983453, "lat": 45.5380599, "lon": -73.6060312}, {"type": "node", "id": 6653983454, "lat": 45.537865, "lon": -73.6055825}, {"type": "node", "id": 6653983455, "lat": 45.5383247, "lon": -73.6053315}, {"type": "node", "id": 6653983456, "lat": 45.5384698, "lon": -73.6056595}, {"type": "node", "id": 6666746456, "lat": 45.5118493, "lon": -73.8160497, "tags": {"brand": "IGA", "brand:wikidata": "Q3146662", "brand:wikipedia": "en:IGA (supermarkets)", "name": "IGA", "shop": "supermarket"}}, {"type": "node", "id": 6699511474, "lat": 45.5195264, "lon": -73.6976416, "tags": {"name": "March\u00e9 Mon Village", "shop": "supermarket"}}, {"type": "node", "id": 6923417147, "lat": 45.4599231, "lon": -73.624347, "tags": {"addr:city": "Montr\u00e9al", "addr:housenumber": "6600", "addr:postcode": "H4B 1V8", "addr:province": "QC", "addr:street": "Rue Saint-Jacques", "brand": "Maxi", "brand:wikidata": "Q3302441", "name": "Maxi", "old_name": "Loblaws", "opening_hours:covid19": "Mo-Su 08:00-20:00", "shop": "supermarket"}}, {"type": "node", "id": 6923417152, "lat": 45.4568659, "lon": -73.6286963, "tags": {"addr:city": "Montr\u00e9al", "addr:housenumber": "6900", "addr:postcode": "H4B 1V8", "addr:province": "QC", "addr:street": "Rue Saint-Jacques", "brand": "Super C", "brand:wikidata": "Q3504127", "brand:wikipedia": "fr:Super C (entreprise)", "name": "Super C", "opening_hours": "Mo-Su 08:00-22:00", "phone": "+1-514-484-3136", "shop": "supermarket", "wheelchair": "yes"}}, {"type": "node", "id": 6923703129, "lat": 45.5211331, "lon": -73.5858106, "tags": {"addr:housenumber": "89", "addr:postcode": "H2T 1N6", "addr:street": "Avenue du Mont-Royal Est", "alt_name": "Universal Meat Market Inc/L'intermarch\u00e9", "brand": "Intermarch\u00e9", "brand:wikidata": "Q3153200", "brand:wikipedia": "fr:Intermarch\u00e9", "name": "Intermarch\u00e9", "opening_hours": "Mo-Sa 08:00-22:00; Su 09:00-22:00", "shop": "supermarket", "website": "https://www.lintermarche.ca/", "wheelchair": "yes"}}, {"type": "node", "id": 6923703130, "lat": 45.5190602, "lon": -73.5870946, "tags": {"addr:city": "Montr\u00e9al", "addr:housenumber": "50", "addr:province": "QC", "addr:street": "Avenue du Mont-Royal Ouest", "branch": "Montr\u00e9al Mont Royal Ouest", "brand": "Maxi", "brand:wikidata": "Q3302441", "brand:wikipedia": "fr:Maxi (supermarch\u00e9)", "name": "Maxi", "opening_hours": "Mo-Su 08:00-22:00", "shop": "supermarket", "wheelchair": "yes"}}, {"type": "node", "id": 6952934882, "lat": 45.4590386, "lon": -73.5672051, "tags": {"addr:city": "Montr\u00e9al", "addr:housenumber": "4500", "addr:province": "QC", "addr:street": "Rue Wellington", "brand": "IGA", "brand:wikidata": "Q3146662", "brand:wikipedia": "en:IGA (supermarkets)", "check_date": "2024-08-15", "name": "IGA", "opening_hours": "closed", "phone": "+1 514 766 7540", "shop": "supermarket", "website": "https://www.iga.net/fr/recherche_de_magasin/magasin/8366-iga-verdun-wellington", "wheelchair": "yes"}}, {"type": "node", "id": 6960991760, "lat": 45.4681712, "lon": -73.540089, "tags": {"addr:city": "Montr\u00e9al", "addr:housenumber": "30", "addr:province": "QC", "addr:street": "Place du Commerce", "brand": "IGA", "brand:wikidata": "Q3146662", "brand:wikipedia": "en:IGA (supermarkets)", "name": "IGA March\u00e9 de l'\u00cele-des- S\u0153urs", "shop": "supermarket"}}, {"type": "node", "id": 6970320797, "lat": 45.5306787, "lon": -73.635781}, {"type": "node", "id": 6970320798, "lat": 45.5306251, "lon": -73.6356009}, {"type": "node", "id": 6970320799, "lat": 45.5303708, "lon": -73.635755}, {"type": "node", "id": 6970320800, "lat": 45.5304244, "lon": -73.6359352}, {"type": "node", "id": 7328765571, "lat": 45.5691001, "lon": -73.6455458}, {"type": "node", "id": 7328765572, "lat": 45.5690015, "lon": -73.6453161}, {"type": "node", "id": 7328765573, "lat": 45.5688808, "lon": -73.6454218}, {"type": "node", "id": 7328765574, "lat": 45.5689794, "lon": -73.6456515}, {"type": "node", "id": 7356725988, "lat": 45.4375029, "lon": -73.6856257, "tags": {"brand": "Metro", "brand:wikidata": "Q1145669", "brand:wikipedia": "fr:Metro (entreprise qu\u00e9b\u00e9coise)", "name": "Metro", "shop": "supermarket"}}, {"type": "node", "id": 7356726035, "lat": 45.4392656, "lon": -73.6913714, "tags": {"brand": "Maxi", "brand:wikidata": "Q3302441", "brand:wikipedia": "fr:Maxi (supermarch\u00e9)", "name": "Maxi", "shop": "supermarket"}}, {"type": "node", "id": 7357344353, "lat": 45.4783847, "lon": -73.8668301, "tags": {"addr:city": "Pierrefonds", "addr:housenumber": "15760", "addr:postcode": "H9H 3P6", "addr:street": "Boulevard de Pierrefonds", "attribution": "Natural Resources Canada", "canvec:CODE": "2010252", "contact:website": "http://www.akhavanfood.com", "name": "March\u00e9 Akhavan", "shop": "supermarket", "source": "CanVec_Import_2009"}}, {"type": "node", "id": 7357344418, "lat": 45.4848289, "lon": -73.8609886, "tags": {"addr:city": "Montr\u00e9al", "addr:housenumber": "14875", "addr:postcode": "H9H 4M5", "addr:street": "boul. de Pierrefonds", "automatic_door": "yes", "brand": "Maxi", "brand:wikidata": "Q3302441", "brand:wikipedia": "fr:Maxi (supermarch\u00e9)", "entrance": "yes", "name": "Maxi", "shop": "supermarket", "wheelchair": "yes"}}, {"type": "node", "id": 7357344457, "lat": 45.4905164, "lon": -73.85024, "tags": {"addr:borough": "Pierrefonds", "addr:city": "Montr\u00e9al", "addr:housenumber": "4849", "addr:postcode": "H9H 2A9", "addr:province": "Qu\u00e9bec", "addr:street": "Boulevard Saint-Jean", "alt_name": "Maxi et Cie Pierrefonds Saint-Jean", "branch": "Pierrefonds Saint Jean", "brand": "Maxi", "brand:wikidata": "Q3302441", "brand:wikipedia": "fr:Maxi (supermarch\u00e9)", "name": "Maxi", "old_name": "Loblaws", "shop": "supermarket"}}, {"type": "node", "id": 7410434249, "lat": 45.4420968, "lon": -73.6228267, "tags": {"addr:housenumber": "7401", "addr:street": "boulevard Newman", "brand": "Super C", "brand:wikidata": "Q3504127", "brand:wikipedia": "fr:Super C (entreprise)", "name": "Super C", "opening_hours": "Mo-Su 08:00-22:00", "operator": "Metro", "phone": "+1 514-366-9512", "shop": "supermarket"}}, {"type": "node", "id": 7417897598, "lat": 45.4905775, "lon": -73.851933, "tags": {"name": "March\u00e9 M S", "shop": "supermarket"}}, {"type": "node", "id": 7418073999, "lat": 45.5849797, "lon": -73.563039, "tags": {"addr:city": "Montr\u00e9al", "addr:housenumber": "6333", "addr:postcode": "H1M 3E6", "addr:province": "QC", "addr:street": "Rue Beaubien Est", "branch": "Beaubien", "brand": "Metro", "brand:wikidata": "Q1145669", "name": "Metro", "payment:cash": "yes", "payment:credit_cards": "yes", "shop": "supermarket"}}, {"type": "node", "id": 7428056424, "lat": 45.5239693, "lon": -73.5519534}, {"type": "node", "id": 7430331073, "lat": 45.4777095, "lon": -73.5831851, "tags": {"addr:city": "Montr\u00e9al", "addr:housenumber": "3964", "addr:postcode": "H4C 1R1", "addr:province": "QC", "addr:street": "Rue Notre-Dame Ouest", "air_conditioning": "yes", "brand": "IGA", "brand:wikidata": "Q3146662", "brand:wikipedia": "en:IGA (supermarkets)", "name": "IGA", "opening_hours": "Mo-Su 08:00-22:00", "organic": "yes", "payment:cash": "yes", "payment:credit_cards": "yes", "payment:debit_cards": "yes", "shop": "supermarket", "stroller": "yes", "wheelchair": "yes"}}, {"type": "node", "id": 7430902092, "lat": 45.4553257, "lon": -73.5760819, "tags": {"addr:city": "Montr\u00e9al", "addr:housenumber": "5144", "addr:postcode": "H4G 1G5", "addr:street": "Rue Bannantyne", "branch": "G\u00e9rard Champagne Lt\u00e9e", "brand": "IGA", "brand:wikidata": "Q3146662", "check_date:opening_hours": "2025-05-14", "name": "IGA", "opening_hours": "08:00-22:00", "shop": "supermarket"}}, {"type": "node", "id": 7433945746, "lat": 45.553919, "lon": -73.6642712, "tags": {"addr:city": "Montr\u00e9al", "addr:housenumber": "10416", "addr:postcode": "H3L 2E5", "addr:province": "QC", "addr:street": "Rue Lajeunesse", "name": "L'Escale Verte", "operator": "\u00c9co-quartier - Ville en vert", "organic": "only", "shop": "supermarket"}}, {"type": "node", "id": 7435775696, "lat": 45.5489022, "lon": -73.6248925, "tags": {"addr:city": "Montr\u00e9al", "addr:housenumber": "1155", "addr:postcode": "H2P 1W9", "addr:province": "Qu\u00e9bec", "addr:street": "Rue Jarry Est", "attribution": "Natural Resources Canada", "brand": "IGA", "brand:wikidata": "Q3146662", "brand:wikipedia": "en:IGA (supermarkets)", "canvec:CODE": "2010252", "canvec:UUID": "11CF452AD9CAE5F4E0409C8467120387", "fax": "+1-514-725-0677", "name": "IGA", "opening_hours": "Mo-Su 08:00-23:00", "phone": "+1-514-725-9323", "shop": "supermarket", "source": "CanVec_Import_2009", "website": "https://www.iga.net/en/find_a_store/store/0569-iga-famille-deziel-jarry", "wheelchair": "yes"}}, {"type": "node", "id": 7437872873, "lat": 45.4662842, "lon": -73.63974, "tags": {"addr:city": "Montr\u00e9al", "addr:housenumber": "6645", "addr:province": "QC", "addr:street": "Avenue Somerled", "branch": "March\u00e9 Somerled", "brand": "Metro", "brand:wikidata": "Q1145669", "brand:wikipedia": "fr:Metro (entreprise qu\u00e9b\u00e9coise)", "name": "Metro", "shop": "supermarket"}}, {"type": "node", "id": 7457684614, "lat": 45.5664045, "lon": -73.6545899, "tags": {"addr:city": "Montr\u00e9al", "addr:housenumber": "1745", "addr:postcode": "H2C 1T3", "addr:street": "Rue Fleury Est", "name": "Supermarch\u00e9 M\u00e9tro Plus", "opening_hours": "Mo-Su 8:00-23:00", "operator": "M\u00e9tro Inc.", "phone": "+1-514-385-1760", "shop": "supermarket", "website": "https://promenadefleury.com/epiceries/supermarche-metro-plus/"}}, {"type": "node", "id": 7457684621, "lat": 45.5674746, "lon": -73.6541454, "tags": {"addr:city": "Montr\u00e9al", "addr:housenumber": "1767", "addr:postcode": "H2C 1T3", "addr:street": "Rue Fleury Est", "name": "Le Naturiste", "opening_hours": "Mo-We 9:30-18:00, Th-Fr 9:30-21:00, Sa 9:00-17:00, Su 12:00-17:00", "organic": "yes", "phone": "+1-514-385-0474", "shop": "supermarket", "website": "https://promenadefleury.com/alimentation-naturelle/le-naturiste/"}}, {"type": "node", "id": 7504493140, "lat": 45.4715854, "lon": -73.562314, "tags": {"brand": "Maxi", "brand:wikidata": "Q3302441", "brand:wikipedia": "fr:Maxi (supermarch\u00e9)", "internet_access": "wlan", "internet_access:fee": "no", "name": "Maxi", "operator": "Maxi", "shop": "supermarket", "wheelchair": "yes"}}, {"type": "node", "id": 8153767217, "lat": 45.5691557, "lon": -73.5833286, "tags": {"addr:housenumber": "4524", "addr:postcode": "H1T 1B6", "addr:street": "Rue B\u00e9langer", "name": "Vatra", "opening_hours": "Mo-We, Sa 10:00-18:00; Th-Fr 10:00-19:00", "phone": "+1 514 607 1163", "shop": "supermarket"}}, {"type": "node", "id": 8172540063, "lat": 45.5376021, "lon": -73.6111955}, {"type": "node", "id": 8173900722, "lat": 45.5375776, "lon": -73.6112171}, {"type": "node", "id": 8173900723, "lat": 45.537568, "lon": -73.611195}, {"type": "node", "id": 8173900724, "lat": 45.5375047, "lon": -73.6112508}, {"type": "node", "id": 8173900725, "lat": 45.5375158, "lon": -73.6112763}, {"type": "node", "id": 8173900726, "lat": 45.5374866, "lon": -73.611302}, {"type": "node", "id": 8173900727, "lat": 45.5375336, "lon": -73.6114108}, {"type": "node", "id": 8173900728, "lat": 45.5376506, "lon": -73.6113078}, {"type": "node", "id": 8353784918, "lat": 45.5027212, "lon": -73.635309, "tags": {"addr:city": "Montr\u00e9al", "addr:housenumber": "3596", "addr:postcode": "H3S 1K4", "addr:province": "QC", "addr:street": "Avenue Barclay", "name": "March\u00e9 Alexandia", "shop": "grocery"}}, {"type": "node", "id": 8584508619, "lat": 45.4629367, "lon": -73.5687733}, {"type": "node", "id": 8584508620, "lat": 45.463201, "lon": -73.5683651}, {"type": "node", "id": 8584508621, "lat": 45.4632285, "lon": -73.568363}, {"type": "node", "id": 8584508622, "lat": 45.4632251, "lon": -73.5685567}, {"type": "node", "id": 8584508623, "lat": 45.4632366, "lon": -73.5685558}, {"type": "node", "id": 8584508626, "lat": 45.4631255, "lon": -73.5683712}, {"type": "node", "id": 8584508632, "lat": 45.4630477, "lon": -73.568764}, {"type": "node", "id": 8584508643, "lat": 45.4629149, "lon": -73.5682212}, {"type": "node", "id": 8584508644, "lat": 45.4632443, "lon": -73.5687501}, {"type": "node", "id": 8592580534, "lat": 45.4631111, "lon": -73.5687608}, {"type": "node", "id": 8626851764, "lat": 45.4632348, "lon": -73.5685226}, {"type": "node", "id": 8919318102, "lat": 45.5557724, "lon": -73.6213008, "tags": {"addr:city": "Montr\u00e9al", "addr:housenumber": "8305", "addr:postcode": "H2M 2G2", "addr:province": "QC", "addr:street": "Avenue Papineau", "brand": "Maxi", "brand:wikidata": "Q3302441", "brand:wikipedia": "fr:Maxi (supermarch\u00e9)", "name": "Maxi", "opening_hours": "Mo-Su 08:00-21:00", "phone": "+1-514-376-6457", "shop": "supermarket", "toilets:wheelchair": "yes", "website": "https://www.maxi.ca/LCLOnline/store_details_landing_page.jsp?storeId=2137", "wheelchair": "yes"}}, {"type": "node", "id": 8925290533, "lat": 45.5104247, "lon": -73.6310496, "tags": {"addr:city": "Montr\u00e9al", "addr:housenumber": "6791", "addr:postcode": "H3S 2J7", "addr:street": "Avenue de Darlington", "name": "March\u00e9 Olgun", "shop": "grocery"}}, {"type": "node", "id": 8925290538, "lat": 45.5102405, "lon": -73.6307051, "tags": {"addr:city": "Montr\u00e9al", "addr:housenumber": "6735", "addr:postcode": "H3S 2J7", "addr:street": "Avenue de Darlington", "diet:kosher": "yes", "name": "One Stop Kosher Grocery", "shop": "grocery"}}, {"type": "node", "id": 8932951589, "lat": 45.6274108, "lon": -73.5979569, "tags": {"addr:city": "Montr\u00e9al", "addr:housenumber": "7605", "addr:province": "QC", "addr:street": "Boulevard Maurice-Duplessis", "brand": "Maxi", "brand:wikidata": "Q3302441", "brand:wikipedia": "fr:Maxi (supermarch\u00e9)", "name": "Maxi", "shop": "supermarket"}}, {"type": "node", "id": 8945387265, "lat": 45.5067973, "lon": -73.6239181, "tags": {"addr:city": "Montr\u00e9al", "addr:housenumber": "6008", "addr:postcode": "H3S 2H8", "addr:street": "Avenue de Darlington", "name": "Mondial", "shop": "supermarket"}}, {"type": "node", "id": 9024821378, "lat": 45.6050148, "lon": -73.6254807, "tags": {"addr:housenumber": "5375", "addr:street": "boulevard Henri-Bourassa", "name": "Le March\u00e9 Esposito", "opening_hours": "Mo-Su 08:00-21:00", "shop": "supermarket"}}, {"type": "node", "id": 9024873264, "lat": 45.6066892, "lon": -73.6168303, "tags": {"addr:housenumber": "6000", "addr:street": "boulevard Henri-Bourassa Est", "brand": "Super C", "brand:wikidata": "Q3504127", "name": "Super C", "opening_hours": "Mo-Su 08:00-22:00", "shop": "supermarket"}}, {"type": "node", "id": 9026387106, "lat": 45.6167202, "lon": -73.6286772, "tags": {"addr:housenumber": "5852", "addr:street": "boulevard L\u00e9ger", "name": "March\u00e9 Diaz", "opening_hours": "Mo-Sa 08:00-21:00; Su 08:00-20:00", "phone": "+1 514 325-3429", "shop": "supermarket", "website": "https://www.marchediaz.com/"}}, {"type": "node", "id": 9084265267, "lat": 45.43255, "lon": -73.63138, "tags": {"addr:housenumber": "8453", "addr:street": "boulevard Newman", "name": "Les Aliments M&M", "opening_hours": "Mo-We 10:00-20:00; Th, Fr 09:00-21:00; Sa 09:00-17:30; Su 10:00-17:00", "phone": "+1 514 363-2929", "shop": "supermarket"}}, {"type": "node", "id": 9109039568, "lat": 45.5296785, "lon": -73.6465972, "tags": {"brand": "IGA", "brand:wikidata": "Q3146662", "brand:wikipedia": "en:IGA (supermarkets)", "level": "1", "name": "IGA Extra", "shop": "supermarket"}}, {"type": "node", "id": 9140324004, "lat": 45.4977545, "lon": -73.6228439, "tags": {"addr:city": "Montr\u00e9al", "addr:housenumber": "5415", "addr:postcode": "H3T 1X4", "addr:province": "Qu\u00e9bec", "addr:street": "Avenue Gatineau", "name": "March\u00e9 du Village", "shop": "supermarket", "website": "https://mduvillage.ca/"}}, {"type": "node", "id": 9140821934, "lat": 45.4865903, "lon": -73.5893792, "tags": {"addr:city": "Westmount", "addr:housenumber": "1280", "addr:postcode": "H3Z 1C2", "addr:province": "Quebec", "addr:street": "Avenue Greene", "name": "5 Seasons", "opening_hours": "Mo-Su 08:00-21:00", "shop": "supermarket", "website": "http://les5saisons.ca/en/index.html"}}, {"type": "node", "id": 9149896403, "lat": 45.5034386, "lon": -73.5622475, "tags": {"addr:city": "Montr\u00e9al", "addr:housenumber": "375", "addr:postcode": "H2Z 0C1", "addr:province": "QC", "addr:street": "Avenue Viger Ouest", "name": "Avril Supermarch\u00e9 Sant\u00e9", "opening_hours": "Mo-Su 07:00-21:00", "phone": "+1 514 736-4874", "shop": "supermarket", "website": "https://www.avril.ca/fr/avril-montreal"}}, {"type": "node", "id": 9156239061, "lat": 45.5445433, "lon": -73.5629588}, {"type": "node", "id": 9156239062, "lat": 45.5445963, "lon": -73.56314}, {"type": "node", "id": 9167471643, "lat": 45.4955404, "lon": -73.6104884, "tags": {"addr:city": "Montr\u00e9al", "addr:housenumber": "4730", "addr:postcode": "H3V 1G2", "addr:province": "Qu\u00e9bec", "addr:street": "Chemin de la C\u00f4te-des-Neiges", "name": "March\u00e9 Ridgewood et Fleurs", "shop": "supermarket"}}, {"type": "node", "id": 9194927224, "lat": 45.4953758, "lon": -73.6369681, "tags": {"addr:city": "Montr\u00e9al", "addr:housenumber": "4693-4699", "addr:postcode": "H3W 1H8", "addr:province": "Qu\u00e9bec", "addr:street": "Avenue Van Horne", "check_date": "2025-08-23", "cuisine": "filipino", "name": "P'lengke", "shop": "supermarket"}}, {"type": "node", "id": 9194927233, "lat": 45.4949648, "lon": -73.6373489, "tags": {"addr:city": "Montr\u00e9al", "addr:housenumber": "4751", "addr:postcode": "H3W 1H8", "addr:province": "Qu\u00e9bec", "addr:street": "Avenue Van Horne", "cuisine": "eastern_european", "name": "Euro Victoria March\u00e9 Europ\u00e9em", "shop": "supermarket"}}, {"type": "node", "id": 9194927235, "lat": 45.4947092, "lon": -73.6376465, "tags": {"addr:city": "Montr\u00e9al", "addr:housenumber": "4777-4785", "addr:postcode": "H3W 1H8", "addr:province": "Qu\u00e9bec", "addr:street": "Avenue Van Horne", "cuisine": "asian", "name": "March\u00e9 Kim Hour", "shop": "supermarket"}}, {"type": "node", "id": 9199682911, "lat": 45.5540765, "lon": -73.5395409}, {"type": "node", "id": 9199682912, "lat": 45.5540673, "lon": -73.5395114}, {"type": "node", "id": 9199712818, "lat": 45.5541641, "lon": -73.5389677}, {"type": "node", "id": 9212608390, "lat": 45.4859555, "lon": -73.6269107, "tags": {"addr:city": "Montr\u00e9al", "addr:housenumber": "4974", "addr:postcode": "H3W 1X2", "addr:province": "Qu\u00e9bec", "addr:street": "Chemin Queen Mary", "cuisine": "african", "level": "-1", "name": "March\u00e9 Mokolo", "shop": "supermarket"}}, {"type": "node", "id": 9212608400, "lat": 45.4856071, "lon": -73.6272384, "tags": {"addr:city": "Montr\u00e9al", "addr:housenumber": "4992", "addr:postcode": "H3W 1X2", "addr:province": "Qu\u00e9bec", "addr:street": "Chemin Queen Mary", "name": "March\u00e9 Snowdon", "shop": "supermarket"}}, {"type": "node", "id": 9214719294, "lat": 45.4849489, "lon": -73.6277986, "tags": {"addr:city": "Montr\u00e9al", "addr:housenumber": "5164", "addr:postcode": "H3W 1X5", "addr:province": "Qu\u00e9bec", "addr:street": "Chemin Queen Mary", "cuisine": "african", "level": "-1", "name": "Afroleck", "shop": "grocery"}}, {"type": "node", "id": 9214719306, "lat": 45.484672, "lon": -73.6279483, "tags": {"addr:city": "Montr\u00e9al", "addr:housenumber": "5178", "addr:postcode": "H3W 1X5", "addr:province": "Qu\u00e9bec", "addr:street": "Chemin Queen Mary", "cuisine": "moroccan;north_african;maghreb", "level": "0.5", "name": "March\u00e9 Le Kasbah", "shop": "supermarket"}}, {"type": "node", "id": 9214817329, "lat": 45.4846811, "lon": -73.62868, "tags": {"addr:housenumber": "5201", "addr:street": "Chemin Queen Mary", "brand": "Metro", "brand:wikidata": "Q1145669", "brand:wikipedia": "fr:Metro (entreprise qu\u00e9b\u00e9coise)", "check_date:opening_hours": "2023-04-21", "name": "Metro", "opening_hours": "Mo-Su 08:00-23:00", "shop": "supermarket"}}, {"type": "node", "id": 9231193916, "lat": 45.5026439, "lon": -73.5761937, "tags": {"addr:city": "Montr\u00e9al", "addr:housenumber": "1001", "addr:postcode": "H3A 1G5", "addr:province": "QC", "addr:street": "Rue Sherbrooke Ouest", "addr:unit": "106", "check_date": "2022-11-27", "name": "Couche Tarde", "opening_hours": "Mo-Su 06:00-21:00", "payment:cash": "yes", "payment:credit_cards": "yes", "payment:debit_cards": "yes", "phone": "+1-514-871-8509", "shop": "supermarket"}}, {"type": "node", "id": 9233817919, "lat": 45.4919618, "lon": -73.6326515, "tags": {"addr:city": "Montr\u00e9al", "addr:housenumber": "5670", "addr:postcode": "H3W 2P8", "addr:province": "Qu\u00e9bec", "addr:street": "Avenue Victoria", "name": "March\u00e9 tharsini", "shop": "supermarket"}}, {"type": "node", "id": 9233878871, "lat": 45.4933442, "lon": -73.6348948, "tags": {"addr:city": "Montr\u00e9al", "addr:housenumber": "5855-5865", "addr:postcode": "H3W 2R6", "addr:province": "Qu\u00e9bec", "addr:street": "Avenue Victoria", "name": "Qualit\u00e9 Cach\u00e8re", "name:en": "Kosher Quality", "shop": "supermarket"}}, {"type": "node", "id": 9233878884, "lat": 45.4935397, "lon": -73.6353901, "tags": {"addr:city": "Montr\u00e9al", "addr:housenumber": "5897", "addr:postcode": "H3W 2R6", "addr:province": "Qu\u00e9bec", "addr:street": "Avenue Victoria", "diet:halal": "yes", "level": "-1", "name": "March\u00e9 Desh Bazas", "shop": "supermarket"}}, {"type": "node", "id": 9233886641, "lat": 45.4917358, "lon": -73.631317, "tags": {"addr:city": "Montr\u00e9al", "addr:housenumber": "5493", "addr:postcode": "H3W 1P9", "addr:province": "Qu\u00e9bec", "addr:street": "Avenue Victoria", "cuisine": "indian", "name": "March\u00e9 Jolee", "shop": "supermarket"}}, {"type": "node", "id": 9233886647, "lat": 45.4921237, "lon": -73.6321493, "tags": {"addr:city": "Montr\u00e9al", "addr:housenumber": "5505", "addr:postcode": "H3W 2R2", "addr:province": "Qu\u00e9bec", "addr:street": "Avenue Victoria", "cuisine": "asian", "name": "March\u00e9 Kim-Po", "shop": "supermarket"}}, {"type": "node", "id": 9233931699, "lat": 45.4942864, "lon": -73.636998, "tags": {"addr:city": "Montr\u00e9al", "addr:housenumber": "6055", "addr:postcode": "H3W 2S1", "addr:province": "Qu\u00e9bec", "addr:street": "Avenue Victoria", "name": "March\u00e9 Fhilipino", "shop": "supermarket"}}, {"type": "node", "id": 9234019631, "lat": 45.4949205, "lon": -73.6392836, "tags": {"addr:city": "Montr\u00e9al", "addr:housenumber": "6324", "addr:postcode": "H3W 2S4", "addr:province": "Qu\u00e9bec", "addr:street": "Avenue Victoria", "name": "March\u00e9 Victoria Oriental", "shop": "supermarket"}}, {"type": "node", "id": 9234019633, "lat": 45.4949607, "lon": -73.6393522, "tags": {"addr:city": "Montr\u00e9al", "addr:housenumber": "6334", "addr:postcode": "H3W 2S4", "addr:province": "Qu\u00e9bec", "addr:street": "Avenue Victoria", "name": "\u00c9picerie Shavit", "shop": "supermarket"}}, {"type": "node", "id": 9234073695, "lat": 45.4952776, "lon": -73.6401008, "tags": {"addr:city": "Montr\u00e9al", "addr:housenumber": "6430", "addr:postcode": "H3W 2S6", "addr:province": "Qu\u00e9bec", "addr:street": "Avenue Victoria", "name": "March\u00e9 Duc Thanh", "shop": "supermarket"}}, {"type": "node", "id": 9234073712, "lat": 45.495713, "lon": -73.6402405, "tags": {"addr:city": "Montr\u00e9al", "addr:housenumber": "6495", "addr:postcode": "H3W 2S9", "addr:province": "Qu\u00e9bec", "addr:street": "Avenue Victoria", "cuisine": "indian", "name": "Nouveau Bismillah Bazar", "shop": "supermarket"}}, {"type": "node", "id": 9234150244, "lat": 45.4965403, "lon": -73.6420563, "tags": {"addr:city": "Montr\u00e9al", "addr:housenumber": "6685", "addr:postcode": "H3W 2T2", "addr:province": "Qu\u00e9bec", "addr:street": "Avenue Victoria", "name": "Aliments Exotiques", "shop": "supermarket"}}, {"type": "node", "id": 9234150245, "lat": 45.49714, "lon": -73.6433878, "tags": {"addr:city": "Montr\u00e9al", "addr:housenumber": "6841", "addr:postcode": "H3W 2T3", "addr:province": "Qu\u00e9bec", "addr:street": "Avenue Victoria", "shop": "supermarket"}}, {"type": "node", "id": 9234150249, "lat": 45.4972214, "lon": -73.6436063, "tags": {"addr:city": "Montr\u00e9al", "addr:housenumber": "6871", "addr:postcode": "H3W 2T3", "addr:province": "Qu\u00e9bec", "addr:street": "Avenue Victoria", "name": "March\u00e9 Afriqu\u00e9bec", "shop": "supermarket"}}, {"type": "node", "id": 9247543393, "lat": 45.4842877, "lon": -73.6297432, "tags": {"addr:city": "Montr\u00e9al", "addr:housenumber": "5143", "addr:postcode": "H3W 3C2", "addr:province": "Qu\u00e9bec", "addr:street": "Boulevard D\u00e9carie", "name": "Teva", "organic": "only", "shop": "supermarket"}}, {"type": "node", "id": 9281976341, "lat": 45.4830889, "lon": -73.6299011, "tags": {"addr:city": "Montr\u00e9al", "addr:housenumber": "5343", "addr:postcode": "H3X 1T9", "addr:province": "Qu\u00e9bec", "addr:street": "Chemin Queen Mary", "name": "Hannah's Hut", "organic": "only", "shop": "supermarket"}}, {"type": "node", "id": 9289295966, "lat": 45.5436803, "lon": -73.5764757, "tags": {"addr:city": "Montr\u00e9al", "addr:housenumber": "5290", "addr:postcode": "H1Y 0C5", "addr:province": "QC", "addr:street": "Rue Molson", "air_conditioning": "yes", "brand": "IGA", "brand:wikidata": "Q3146662", "check_date": "2024-02-17", "fax": "+1 514 528-8069", "name": "IGA Barcelo Molson", "payment:cash": "yes", "payment:credit_cards": "yes", "payment:debit_cards": "yes", "phone": "+1514 528-9100", "shop": "supermarket", "website": "https://www.iga.net", "wheelchair": "yes"}}, {"type": "node", "id": 9362839802, "lat": 45.5500327, "lon": -73.6158974, "tags": {"addr:city": "Montr\u00e9al", "addr:housenumber": "7700", "addr:province": "QC", "addr:street": "Rue Fabre", "name": "March\u00e9 la Vie en Vert", "shop": "supermarket"}}, {"type": "node", "id": 9388818938, "lat": 45.5471066, "lon": -73.5428523}, {"type": "node", "id": 9435386198, "lat": 45.5520425, "lon": -73.6198742, "tags": {"addr:city": "Montr\u00e9al", "addr:housenumber": "1560", "addr:province": "QC", "addr:street": "Rue Jarry Est", "name": "Fruiterie Jarry, produits latins arabes italiens ha\u00eftiens", "shop": "supermarket"}}, {"type": "node", "id": 9456040115, "lat": 45.5441379, "lon": -73.577544, "tags": {"entrance": "main"}}, {"type": "node", "id": 9579437184, "lat": 45.5229766, "lon": -73.5772905, "tags": {"addr:housenumber": "505", "addr:street": "Rue Rachel Est", "check_date": "2023-03-04", "description": "\u00c9picerie de produits locaux et produits en vrac, avec contenants r\u00e9utilisables", "name": "\u00c9picerie Basta", "opening_hours": "Mo-Fr 08:00-20:30; Sa 09:00-20:30; Su 09:00-19:30", "payment:interac": "yes", "payment:mastercard": "yes", "payment:visa": "yes", "shop": "supermarket", "website": "https://epiceriebasta.ca/"}}, {"type": "node", "id": 9652554092, "lat": 45.5572774, "lon": -73.6598271, "tags": {"addr:city": "Montr\u00e9al", "addr:housenumber": "905", "addr:province": "QC", "addr:street": "Rue Fleury Est", "name": "Rachelle Bery", "operator": "Aliments Sant\u00e9 Laurier", "shop": "supermarket", "website": "https://promenadefleury.com/epiceries/aliments-sante-laurier/"}}, {"type": "node", "id": 9652899835, "lat": 45.4515268, "lon": -73.6074376}, {"type": "node", "id": 9652899836, "lat": 45.451594, "lon": -73.6073769}, {"type": "node", "id": 9652899837, "lat": 45.4515448, "lon": -73.6072558}, {"type": "node", "id": 9652899838, "lat": 45.451469, "lon": -73.6073157}, {"type": "node", "id": 9652899839, "lat": 45.4508129, "lon": -73.6073607}, {"type": "node", "id": 9652899840, "lat": 45.4507824, "lon": -73.6073864}, {"type": "node", "id": 9652899841, "lat": 45.4508397, "lon": -73.6075294}, {"type": "node", "id": 9652899842, "lat": 45.4508741, "lon": -73.6075006}, {"type": "node", "id": 9657280877, "lat": 45.4949641, "lon": -73.6199557, "tags": {"addr:city": "Montr\u00e9al", "addr:housenumber": "5150", "addr:postcode": "H3T 1X8", "addr:province": "Qu\u00e9bec", "addr:street": "Chemin de la C\u00f4te-des-Neiges", "attribution": "Natural Resources Canada", "brand": "Metro", "brand:wikidata": "Q1145669", "brand:wikipedia": "fr:Metro (entreprise qu\u00e9b\u00e9coise)", "check_date": "2025-08-13", "name": "Metro", "opening_hours": "24/7", "shop": "supermarket", "source": "CanVec_Import_2009"}}, {"type": "node", "id": 9681560773, "lat": 45.4400338, "lon": -73.6226656, "tags": {"addr:housenumber": "7579-7581", "addr:postcode": "H8N 1X3", "addr:street": "Boulevard Newman", "brand": "Bulk Barn", "brand:wikidata": "Q4996466", "name": "Bulk Barn", "opening_hours": "Mo-Fr 09:30-21:00; Sa 9:30-18:00; Su 10:00-17:00", "phone": "+1 514-366-9528", "shop": "supermarket", "website": "https://www.bulkbarn.ca"}}, {"type": "node", "id": 9802440061, "lat": 45.5205509, "lon": -73.6080384}, {"type": "node", "id": 9802440062, "lat": 45.5205299, "lon": -73.6080572}, {"type": "node", "id": 9802440063, "lat": 45.5204831, "lon": -73.607951}, {"type": "node", "id": 9802440064, "lat": 45.5204736, "lon": -73.6079595}, {"type": "node", "id": 9802440065, "lat": 45.5204542, "lon": -73.6078169}, {"type": "node", "id": 9802440066, "lat": 45.5204231, "lon": -73.6078447}, {"type": "node", "id": 9886360970, "lat": 45.5452671, "lon": -73.6038295}, {"type": "node", "id": 9886360971, "lat": 45.5452835, "lon": -73.6039288}, {"type": "node", "id": 9886360972, "lat": 45.5452321, "lon": -73.6037504}, {"type": "node", "id": 9886360973, "lat": 45.5450514, "lon": -73.6041312}, {"type": "node", "id": 9886360974, "lat": 45.5454081, "lon": -73.6035917}, {"type": "node", "id": 9886360975, "lat": 45.5456319, "lon": -73.6040727}, {"type": "node", "id": 9891349829, "lat": 45.4790999, "lon": -73.6260641, "tags": {"addr:city": "Montr\u00e9al", "addr:housenumber": "5501", "addr:postcode": "H3X 2C6", "addr:province": "Qu\u00e9bec", "addr:street": "Chemin de la C\u00f4te-Saint-Luc", "brand": "IGA", "brand:wikidata": "Q3146662", "brand:wikipedia": "en:IGA (supermarkets)", "name": "IGA", "opening_hours": "Mo-Su 08:00-21:00", "phone": "+1-514-488-6805", "shop": "supermarket", "website": "https://www.iga.net/en/find_a_store/store/7927-iga-marche-d-alimentation-bernier-inc-"}}, {"type": "node", "id": 9900227870, "lat": 45.5381467, "lon": -73.6054891}, {"type": "node", "id": 9900227871, "lat": 45.5380978, "lon": -73.6053765}, {"type": "node", "id": 9900230329, "lat": 45.5396036, "lon": -73.6098203}, {"type": "node", "id": 9900230330, "lat": 45.5393739, "lon": -73.6100312}, {"type": "node", "id": 9900230331, "lat": 45.5394727, "lon": -73.6102505}, {"type": "node", "id": 9900230332, "lat": 45.5397024, "lon": -73.6100396}, {"type": "node", "id": 9951930825, "lat": 45.4936082, "lon": -73.6564655, "tags": {"brand": "Bulk Barn", "brand:wikidata": "Q4996466", "name": "Bulk Barn", "operator": "bulk barn", "shop": "supermarket"}}, {"type": "node", "id": 9960349917, "lat": 45.4294976, "lon": -73.6368363, "tags": {"addr:city": "Lasalle", "addr:postcode": "H8R1Y8", "addr:province": "QC", "addr:street": "Boulevard Newman", "name": "Punjab Foods", "opening_hours": "Mo-We 10:00-18:00; Th-Fr 10:00-19:00; Sa 10:00-18:00; Su off", "phone": "+1 514-366-0560", "shop": "supermarket"}}, {"type": "node", "id": 10040957789, "lat": 45.4217891, "lon": -73.6373669, "tags": {"addr:city": "Lasalle", "addr:housenumber": "9150", "addr:postcode": "H8R 2A5", "addr:street": "Rue Airlie", "amenity": "disused", "disused:shop": "yes", "name": "Palumbo", "opening_hours": "closed", "phone": "+1 514-364-9995", "shop": "supermarket"}}, {"type": "node", "id": 10050155089, "lat": 45.5686952, "lon": -73.5517029, "tags": {"brand": "IGA", "brand:wikidata": "Q3146662", "image": "https://web.archive.org/web/20220925023156/https://westnordost.de/p/99206.jpg", "name": "IGA", "shop": "supermarket"}}, {"type": "node", "id": 10156685616, "lat": 45.5942426, "lon": -73.5244215, "tags": {"brand": "IGA", "brand:wikidata": "Q3146662", "name": "IGA", "shop": "supermarket"}}, {"type": "node", "id": 10180947505, "lat": 45.5271106, "lon": -73.623988, "tags": {"addr:housenumber": "690", "addr:street": "Rue Jean-Talon Ouest", "name": "March\u00e9 Bakar", "name:ar": "March\u00e9 \u0628\u0642\u0627\u0631", "shop": "supermarket"}}, {"type": "node", "id": 10278775401, "lat": 45.5347283, "lon": -73.6143864, "tags": {"addr:housenumber": "152", "addr:street": "Avenue Mozart Est", "amenity": "restaurant", "cuisine": "mediterranean;middle_eastern;syrian", "diet:vegan": "only", "name": "Sham", "opening_hours": "Tu-Sa 19:00-20:45; Su 10:00-18:45", "shop": "grocery", "website": "https://shammontreal.com/"}}, {"type": "node", "id": 10537872506, "lat": 45.6043534, "lon": -73.6221945, "tags": {"name": "Supermarche B G Enr", "shop": "supermarket"}}, {"type": "node", "id": 10666098851, "lat": 45.5083568, "lon": -73.6257929, "tags": {"addr:city": "Montr\u00e9al", "addr:housenumber": "2875", "addr:postcode": "H3S 1P6", "addr:province": "Qu\u00e9bec", "addr:street": "Avenue Van Horne", "branch": "Plus", "brand": "Metro", "brand:wikidata": "Q1145669", "level": "1", "name": "Metro", "opening_hours": "Mo-Su 08:00-22:00", "shop": "supermarket"}}, {"type": "node", "id": 10698054612, "lat": 45.572952, "lon": -73.5431953, "tags": {"addr:city": "Montr\u00e9al", "addr:housenumber": "2914", "addr:postcode": "h1n2m8", "addr:street": "Rue Lacordaire", "name": "March\u00e9 Lacordaire", "opening_hours": "Mo-Su 08:00-20:00", "operator": "March\u00e9 Richelieu", "shop": "supermarket", "source": "NRCan-CanVec-10.0", "website": "https://www.marcherichelieu.ca/", "wheelchair": "yes"}}, {"type": "node", "id": 10700766292, "lat": 45.5346645, "lon": -73.6660507, "tags": {"brand": "March\u00e9 Adonis", "brand:wikidata": "Q20707426", "name": "March\u00e9 Adonis", "opening_hours": "Mo-Fr 08:00-21:00; Sa,Su 08:00-20:00", "operator": "Adonis", "shop": "supermarket"}}, {"type": "node", "id": 10720374755, "lat": 45.5994553, "lon": -73.6134473}, {"type": "node", "id": 10720374759, "lat": 45.599772, "lon": -73.613966}, {"type": "node", "id": 10720374760, "lat": 45.5997175, "lon": -73.6138454}, {"type": "node", "id": 10720374761, "lat": 45.5997522, "lon": -73.6138133}, {"type": "node", "id": 10720374762, "lat": 45.599647, "lon": -73.6135805}, {"type": "node", "id": 10720374763, "lat": 45.5996307, "lon": -73.6135955}, {"type": "node", "id": 10720374764, "lat": 45.5995833, "lon": -73.6134906}, {"type": "node", "id": 10720374765, "lat": 45.599526, "lon": -73.6135435}, {"type": "node", "id": 10720374766, "lat": 45.599495, "lon": -73.6134749}, {"type": "node", "id": 10720374767, "lat": 45.5995066, "lon": -73.6134643}, {"type": "node", "id": 10720374768, "lat": 45.5994837, "lon": -73.6134135}, {"type": "node", "id": 10720374769, "lat": 45.5995497, "lon": -73.6133528}, {"type": "node", "id": 10720374770, "lat": 45.5995187, "lon": -73.613284}, {"type": "node", "id": 10720374772, "lat": 45.599115, "lon": -73.6138048}, {"type": "node", "id": 10720374773, "lat": 45.5993269, "lon": -73.6142816}, {"type": "node", "id": 10720374774, "lat": 45.5993237, "lon": -73.6143979}, {"type": "node", "id": 10720374775, "lat": 45.5993923, "lon": -73.6144017}, {"type": "node", "id": 10720374776, "lat": 45.5994077, "lon": -73.6143025}, {"type": "node", "id": 10720374796, "lat": 45.5994057, "lon": -73.6143904}, {"type": "node", "id": 10751187848, "lat": 45.5277664, "lon": -73.6699689, "tags": {"addr:city": "Montr\u00e9al", "addr:postcode": "H4N 1C0", "addr:province": "Quebec", "addr:street": "Boulevard de la C\u00f4te-Vertu", "name": "Intermarch\u00e9 C\u00f4te-Vertu", "not:brand:wikidata": "Q3153200", "opening_hours": "Mo-Su 08:00-21:00", "payment:cash": "yes", "payment:credit_cards": "yes", "payment:debit_cards": "yes", "phone": "+15143342328", "shop": "supermarket"}}, {"type": "node", "id": 10779613786, "lat": 45.4962222, "lon": -73.6510877, "tags": {"addr:city": "Montr\u00e9al", "addr:housenumber": "5055", "addr:province": "Qu\u00e9bec", "addr:street": "Rue Jean-Talon Ouest", "brand": "IGA", "brand:wikidata": "Q3146662", "brand:wikipedia": "en:IGA (supermarkets)", "name": "IGA", "shop": "supermarket"}}, {"type": "node", "id": 10784068371, "lat": 45.4944147, "lon": -73.648415, "tags": {"addr:city": "Montr\u00e9al", "addr:housenumber": "5157", "addr:province": "QC", "addr:street": "Avenue de Courtrai", "name": "Supermarch\u00e9 PA Westbury", "shop": "supermarket"}}, {"type": "node", "id": 10828227881, "lat": 45.4767986, "lon": -73.5672305, "tags": {"addr:street": "Rue Mullins", "branch": "Mullins", "brand": "IGA", "brand:wikidata": "Q3146662", "brand:wikipedia": "en:IGA (supermarkets)", "name": "IGA", "opening_hours": "Mo-Su 08:00-22:00", "shop": "supermarket", "wheelchair": "yes"}}, {"type": "node", "id": 10830928591, "lat": 45.5594088, "lon": -73.658606, "tags": {"addr:city": "Montr\u00e9al", "addr:housenumber": "1211", "addr:province": "QC", "addr:street": "Rue Fleury Est", "name": "Chez Cl\u00e9mentine", "shop": "supermarket"}}, {"type": "node", "id": 10904751566, "lat": 45.4941223, "lon": -73.5783859, "tags": {"level": "2", "name": "March\u00e9 Newon (Downtown)", "opening_hours": "Mo-Su 09:00-21:00", "phone": "+1-514-935-6338; +1-514-931-6338", "shop": "supermarket", "website": "http://marchenewon.com"}}, {"type": "node", "id": 11012522149, "lat": 45.5542552, "lon": -73.5871414}, {"type": "node", "id": 11018636725, "lat": 45.5513192, "lon": -73.5730987, "tags": {"addr:floor": "G", "addr:housenumber": "3275", "addr:postcode": "H1X 1R3", "addr:street": "Rue Masson", "check_date": "2024-08-17", "level": "0", "name": "Supermarch\u00e9 Masson", "opening_hours": "Mo-Su 09:00-22:00", "payment:cash": "yes", "payment:credit_cards": "yes", "payment:debit_cards": "yes", "phone": "+1 5147237777", "shop": "supermarket", "wheelchair": "no"}}, {"type": "node", "id": 11045421570, "lat": 45.4629313, "lon": -73.5681917}, {"type": "node", "id": 11049146805, "lat": 45.5078623, "lon": -73.6668383, "tags": {"addr:city": "Montr\u00e9al", "addr:housenumber": "300", "addr:street": "Avenue Sainte-Croix", "check_date:opening_hours": "2025-08-25", "name": "T&T supermarch\u00e9", "opening_hours": "Mo-Su 09:00-22:00", "shop": "supermarket"}}, {"type": "node", "id": 11061953462, "lat": 45.5475138, "lon": -73.5930273, "tags": {"addr:housenumber": "2339", "addr:street": "Rue Beaubien Est", "check_date": "2024-07-29", "name": "Chez Clementine", "opening_hours": "Mo-Fr 09:00-20:00; Sa-Su 09:00-19:00", "phone": "+1 514 723 5353", "shop": "grocery", "website": "https://www.facebook.com/people/Chez-Cl%C3%A9mentine-Beaubien/100093140685771/", "wheelchair": "yes"}}, {"type": "node", "id": 11105542356, "lat": 45.5554258, "lon": -73.5311419, "tags": {"addr:city": "Montr\u00e9al", "addr:housenumber": "4767", "addr:postcode": "H1V 1Z5", "addr:province": "QC", "addr:street": "Rue Sainte-Catherine Est", "amenity": "cafe", "cuisine": "sandwich;coffee_shop;burger", "diet:vegan": "yes", "diet:vegetarian": "yes", "name": "\u00c9picerie & Caf\u00e9 Sainte-Madeleine", "opening_hours": "Mo-We 08:00-20:00; Th-Fr 08:00-21:00; Sa-Su 09:00-20:00", "phone": "+1 514 903 6775", "shop": "grocery", "website": "https://www.facebook.com/epiceriesaintemadeleine/"}}, {"type": "node", "id": 11108915416, "lat": 45.521976, "lon": -73.5620137, "tags": {"addr:housenumber": "1273", "addr:street": "Rue Ontario Est", "bulk_purchase": "only", "check_date": "2024-06-30", "name": "\u00c9picerie Vrac & Bio", "opening_hours": "Mo-Fr 10:00-19:00; Sa-Su 10:00-18:00", "phone": "+1 514 419 1918", "reusable_packaging:accept": "yes", "shop": "grocery", "wheelchair": "no", "zero_waste": "only"}}, {"type": "node", "id": 11120940438, "lat": 45.5225169, "lon": -73.6174486, "tags": {"name": "March\u00e9 Oda", "opening_hours": "Mo-Sa 08:00-20:00; Su 09:00-19:00", "shop": "supermarket", "source": "https://www.marcheoda.com/"}}, {"type": "node", "id": 11120977305, "lat": 45.5943531, "lon": -73.5116032, "tags": {"branch": "Plus", "brand": "Metro", "brand:wikidata": "Q1145669", "name": "Metro", "shop": "supermarket"}}, {"type": "node", "id": 11127953788, "lat": 45.5541758, "lon": -73.5393516}, {"type": "node", "id": 11127953789, "lat": 45.5540433, "lon": -73.5394349}, {"type": "node", "id": 11127953790, "lat": 45.5541191, "lon": -73.5389963}, {"type": "node", "id": 11127953791, "lat": 45.5541753, "lon": -73.5391769}, {"type": "node", "id": 11127953792, "lat": 45.5541907, "lon": -73.5391864}, {"type": "node", "id": 11128036308, "lat": 45.5542221, "lon": -73.5391255}, {"type": "node", "id": 11128036309, "lat": 45.5542147, "lon": -73.5391302}, {"type": "node", "id": 11153254438, "lat": 45.5542012, "lon": -73.5871745, "tags": {"door": "automatic", "entrance": "main", "wheelchair": "yes"}}, {"type": "node", "id": 11165706183, "lat": 45.5440747, "lon": -73.5775312, "tags": {"entrance": "yes"}}, {"type": "node", "id": 11169859608, "lat": 45.5103697, "lon": -73.5651164, "tags": {"addr:housenumber": "1446", "addr:street": "Boulevard Saint-Laurent", "check_date": "2025-08-28", "name": "Nuvo Express", "shop": "supermarket"}}, {"type": "node", "id": 11179543253, "lat": 45.4944151, "lon": -73.5782829, "tags": {"brand": "Bulk Barn", "brand:wikidata": "Q4996466", "name": "Bulk Barn", "opening_hours": "Mo-Fr 09:30-20:30; Sa 08:30-20:00; Su 10:00-17:00", "shop": "supermarket"}}, {"type": "node", "id": 11181083906, "lat": 45.5334701, "lon": -73.6160451, "tags": {"name": "Supermarch\u00e9 Mundial", "shop": "supermarket"}}, {"type": "node", "id": 11181083909, "lat": 45.5339458, "lon": -73.6163714, "tags": {"name": "Rachelle-B\u00e9ry", "organic": "only", "shop": "supermarket"}}, {"type": "node", "id": 11198290170, "lat": 45.548238, "lon": -73.5849921, "tags": {"addr:floor": "G", "addr:housenumber": "2625", "addr:street": "Boulevard Rosemont", "check_date": "2024-08-29", "contact:facebook": "https://www.facebook.com/EpiceriesValmont/", "level": "0", "name": "Valmont", "opening_hours": "Mo-Fr 08:00-20:00; Sa-Su 08:00-19:00", "payment:cash": "yes", "payment:credit_cards": "yes", "payment:debit_cards": "yes", "phone": "+1 5145645554", "shop": "supermarket", "website": "https://epicerievalmont.com/"}}, {"type": "node", "id": 11203879884, "lat": 45.5823523, "lon": -73.5726504, "tags": {"name": "March\u00e9 Bela", "shop": "supermarket"}}, {"type": "node", "id": 11203941345, "lat": 45.5824341, "lon": -73.5726034, "tags": {"name": "La R\u00e9f\u00e9rence Alimentation Africaine", "shop": "supermarket"}}, {"type": "node", "id": 11203945638, "lat": 45.5693863, "lon": -73.5837008, "tags": {"name": "Akwaba", "shop": "supermarket"}}, {"type": "node", "id": 11211286152, "lat": 45.5208485, "lon": -73.6078633, "tags": {"access": "customers", "door": "automatic", "entrance": "shop", "wheelchair": "yes"}}, {"type": "node", "id": 11215968718, "lat": 45.5375292, "lon": -73.6059186, "tags": {"addr:housenumber": "6667", "addr:street": "Rue Saint-Hubert", "contact:phone": "+1 514 380 4404", "name": "\u00c9picerie Gourmand", "shop": "supermarket", "wheelchair": "yes"}}, {"type": "node", "id": 11229610122, "lat": 45.5402355, "lon": -73.6124417, "tags": {"addr:housenumber": "7094", "addr:street": "Rue Saint-Hubert", "addr:unit": "A", "name": "Mir\u00e1 V\u00e9! March\u00e9 Colombien", "shop": "supermarket", "wheelchair": "yes"}}, {"type": "node", "id": 11229658045, "lat": 45.5403845, "lon": -73.6122091, "tags": {"addr:housenumber": "7093", "addr:street": "Rue Saint-Hubert", "name": "Deli Esquites", "shop": "supermarket", "wheelchair": "yes"}}, {"type": "node", "id": 11238397913, "lat": 45.5651414, "lon": -73.6092863, "tags": {"addr:city": "Montr\u00e9al", "addr:housenumber": "337", "addr:postcode": "H1Z 2g6", "addr:province": "QC", "addr:street": "Rue Jarry Est", "air_conditioning": "yes", "name": "March\u00e9 Sultan", "opening_hours": "Mo-Su 9:00-21:00", "payment:cash": "yes", "payment:credit_cards": "yes", "payment:debit_cards": "yes", "phone": "+1-514-727-3337", "shop": "supermarket"}}, {"type": "node", "id": 11281513100, "lat": 45.5081498, "lon": -73.5603645, "tags": {"addr:housenumber": "1062", "addr:street": "Boulevard Saint-Laurent", "check_date": "2024-07-11", "name": "\u00c9picerie Kien Vinh", "origin": "asian", "payment:credit_cards": "no", "phone": "+1 514 393 1030", "shop": "grocery"}}, {"type": "node", "id": 11292287932, "lat": 45.5686974, "lon": -73.6054201}, {"type": "node", "id": 11294540590, "lat": 45.5821287, "lon": -73.6033603, "tags": {"addr:housenumber": "8530", "addr:postcode": "H1R 2T7", "addr:street": "Boulevard Viau", "branch": "Lagoria Viau", "name": "L'Intermarch\u00e9", "opening_hours": "Mo-Fr 08:00-21:00; Sa-Su 08:00-20:00", "phone": "+1-514-321-3335", "shop": "supermarket", "website": "https://www.groupelagoria.ca/"}}, {"type": "node", "id": 11294590500, "lat": 45.5805399, "lon": -73.5952929, "tags": {"addr:housenumber": "5001", "addr:postcode": "H1R 1Y1", "addr:street": "Rue Jarry Est", "name": "L'Intermarch\u00e9 Lagoria Jarry", "opening_hours": "Mo-Fr 08:00-21:00; Sa-Su 08:00-20:00", "phone": "+1-514-321-3335", "shop": "supermarket", "website": "https://www.groupelagoria.ca/"}}, {"type": "node", "id": 11294598460, "lat": 45.5702611, "lon": -73.6059578}, {"type": "node", "id": 11294598461, "lat": 45.5702876, "lon": -73.6059341}, {"type": "node", "id": 11294625889, "lat": 45.5697601, "lon": -73.6056382}, {"type": "node", "id": 11294625890, "lat": 45.5696568, "lon": -73.605731}, {"type": "node", "id": 11294625891, "lat": 45.5696305, "lon": -73.6056711}, {"type": "node", "id": 11294625892, "lat": 45.569738, "lon": -73.6055744}, {"type": "node", "id": 11294625893, "lat": 45.5693682, "lon": -73.6050713}, {"type": "node", "id": 11294625894, "lat": 45.5693404, "lon": -73.605004}, {"type": "node", "id": 11294625895, "lat": 45.5693861, "lon": -73.6050553}, {"type": "node", "id": 11294625896, "lat": 45.5693569, "lon": -73.6049891}, {"type": "node", "id": 11337137706, "lat": 45.5672952, "lon": -73.6169554, "tags": {"addr:city": "Montr\u00e9al", "addr:housenumber": "8511", "addr:postcode": "H1Z 3E7", "addr:province": "Quebec", "addr:street": "Boulevard Saint-Michel", "name": "Foire Des Antilles (La)", "opening_hours": "Mo-Sa 10:00-19:00", "payment:cash": "yes", "payment:credit_cards": "yes", "payment:debit_cards": "yes", "phone": "+1-514-728-6771", "shop": "supermarket", "website": "https://foire-la.edan.io/"}}, {"type": "node", "id": 11349579288, "lat": 45.5991396, "lon": -73.5928331, "tags": {"addr:housenumber": "8700", "addr:postcode": "H1P 3C6", "addr:street": "Boulevard Langelier", "name": "L'Intermarch\u00e9 Lagoria Langelier", "opening_hours": "Mo-Fr 08:00-21:00; Sa-Su 08:00-20:00", "phone": "+1-514-323-0740", "shop": "supermarket", "website": "https://www.groupelagoria.ca/"}}, {"type": "node", "id": 11401993255, "lat": 45.6580827, "lon": -73.5103718, "tags": {"shop": "supermarket"}}, {"type": "node", "id": 11414648998, "lat": 45.5492386, "lon": -73.6667201, "tags": {"addr:city": "Montr\u00e9al", "addr:housenumber": "10455", "addr:province": "QC", "addr:street": "Boulevard Saint-Laurent", "brand": "Maxi", "brand:wikidata": "Q3302441", "name": "Maxi", "shop": "supermarket"}}, {"type": "node", "id": 11417122413, "lat": 45.5761114, "lon": -73.6553235, "tags": {"addr:city": "Montr\u00e9al", "addr:housenumber": "2323", "addr:province": "QC", "addr:street": "Boulevard Henri-Bourassa Est", "brand": "Provigo", "brand:wikidata": "Q3408306", "brand:wikipedia": "fr:Provigo", "name": "Provigo", "shop": "supermarket"}}, {"type": "node", "id": 11426207087, "lat": 45.5581671, "lon": -73.6364978, "tags": {"addr:city": "Montr\u00e9al", "addr:housenumber": "8935", "addr:postcode": "H2M 2E9", "addr:province": "QC", "addr:street": "Avenue Andr\u00e9-Grasset", "brand": "Metro", "brand:wikidata": "Q1145669", "brand:wikipedia": "fr:Metro (entreprise qu\u00e9b\u00e9coise)", "name": "Metro Plus Andr\u00e9-Grasset", "opening_hours": "Mo-Su 8:00-23:00", "operator": "Metro", "phone": "+1-514-382-1465", "shop": "supermarket", "website": "https://www.metro.ca/trouver-un-metro/details.fr.html?id=128"}}, {"type": "node", "id": 11439809829, "lat": 45.4256592, "lon": -73.6119421, "tags": {"addr:housenumber": "8130", "addr:postcode": "H8P 1B4", "addr:street": "Boulevard Champlain", "brand": "IGA", "brand:wikidata": "Q3146662", "name": "IGA Extra", "opening_hours": "Mo-Su 08:00-21:00", "phone": "+1-514-364-4777", "shop": "supermarket", "website": "https://www.iga.net/en/find_a_store/store/0293-marche-d-alimentation-beck-inc-"}}, {"type": "node", "id": 11481536603, "lat": 45.5719146, "lon": -73.5714332}, {"type": "node", "id": 11520280322, "lat": 45.5344623, "lon": -73.5517412, "tags": {"addr:housenumber": "2679", "addr:postcode": "H2K 1X1", "addr:street": "Rue Ontario Est", "check_date": "2024-06-11", "name": "Epicerie Hiep Phat", "payment:interac": "yes", "payment:mastercard": "yes", "payment:visa": "yes", "phone": "+1 514 526 8769", "shop": "grocery", "website": "http://marche3a.ca/"}}, {"type": "node", "id": 11569732660, "lat": 45.5422926, "lon": -73.6073982, "tags": {"addr:housenumber": "1247", "addr:street": "Rue B\u00e9langer", "bulk_purchase": "yes", "check_date": "2024-10-04", "diet:vegan": "only", "name": "Atelier Tonic", "organic": "yes", "reusable_packaging:accept": "yes", "reusable_packaging:offer": "yes", "shop": "supermarket", "website": "https://ateliertonic.com/", "wheelchair": "no", "zero_waste": "only"}}, {"type": "node", "id": 11584539106, "lat": 45.5274578, "lon": -73.5790863}, {"type": "node", "id": 11584539107, "lat": 45.5272356, "lon": -73.5792989}, {"type": "node", "id": 11608706393, "lat": 45.4974448, "lon": -73.5583961, "tags": {"brand": "IGA", "brand:wikidata": "Q3146662", "check_date": "2025-09-28", "name": "IGA", "opening_hours": "Mo-Su 08:00-23:00", "payment:cash": "yes", "payment:credit_cards": "yes", "payment:debit_cards": "yes", "shop": "supermarket", "website": "https://www.iga.net/fr/recherche_de_magasin/magasin/8093-iga-duke", "wheelchair": "yes"}}, {"type": "node", "id": 11658712223, "lat": 45.5299969, "lon": -73.5904994}, {"type": "node", "id": 11658712224, "lat": 45.5300231, "lon": -73.5912145}, {"type": "node", "id": 11658712228, "lat": 45.5301707, "lon": -73.5908878}, {"type": "node", "id": 11660423462, "lat": 45.5915971, "lon": -73.5353538, "tags": {"amenity": "loading_dock"}}, {"type": "node", "id": 11660423463, "lat": 45.5916176, "lon": -73.5354142}, {"type": "node", "id": 11660423464, "lat": 45.5917101, "lon": -73.5353491}, {"type": "node", "id": 11660423465, "lat": 45.591672, "lon": -73.5352371}, {"type": "node", "id": 11660423466, "lat": 45.5915793, "lon": -73.5353014}, {"type": "node", "id": 11660423480, "lat": 45.5916912, "lon": -73.5352936}, {"type": "node", "id": 11670326728, "lat": 45.4507977, "lon": -73.6073736, "tags": {"door": "automatic", "entrance": "main", "wheelchair": "yes"}}, {"type": "node", "id": 11770100383, "lat": 45.4585842, "lon": -73.6278968, "tags": {"addr:city": "Montr\u00e9al", "addr:housenumber": "6785", "addr:province": "QC", "addr:street": "Rue Saint-Jacques", "name": "March\u00e9 Oriental Jang-Teu", "shop": "supermarket"}}, {"type": "node", "id": 11787450863, "lat": 45.52236, "lon": -73.5844773, "tags": {"addr:city": "Montr\u00e9al", "addr:housenumber": "205", "addr:postcode": "H2W 1P4", "addr:province": "QC", "addr:street": "Avenue du Mont-Royal Est", "name": "Valmont", "opening_hours": "Mo-Su 09:00-21:00", "phone": "+1-514-564-2220", "shop": "supermarket"}}, {"type": "node", "id": 11826525485, "lat": 45.5700523, "lon": -73.5879927, "tags": {"name": "March\u00e9 Kohinoor", "shop": "supermarket"}}, {"type": "node", "id": 11828375997, "lat": 45.5616611, "lon": -73.5955826, "tags": {"addr:housenumber": "3562", "addr:street": "Rue Jean-Talon Est", "name": "Dor\u00e9-Mie", "shop": "grocery"}}, {"type": "node", "id": 11828376048, "lat": 45.5610521, "lon": -73.5965913, "tags": {"addr:housenumber": "3443", "addr:street": "Rue Jean-Talon Est", "addr:unit": "A", "name": "March\u00e9 Castel", "shop": "grocery"}}, {"type": "node", "id": 11834045620, "lat": 45.5556392, "lon": -73.5999891, "tags": {"addr:housenumber": "2638", "addr:street": "Rue Jean-Talon Est", "name": "March\u00e9 GRTM", "shop": "grocery"}}, {"type": "node", "id": 11834045621, "lat": 45.5555902, "lon": -73.6000389, "tags": {"addr:housenumber": "2636", "addr:street": "Rue Jean-Talon Est", "name": "March\u00e9 JC", "shop": "grocery"}}, {"type": "node", "id": 11888146642, "lat": 45.5441963, "lon": -73.5777363}, {"type": "node", "id": 11888146646, "lat": 45.5440356, "lon": -73.5775554}, {"type": "node", "id": 11922897920, "lat": 45.4925947, "lon": -73.5809119, "tags": {"name": "Kametsuru - \u00c9picerie Japonaise", "opening_hours": "\"under renovation\"", "shop": "supermarket"}}, {"type": "node", "id": 11972821960, "lat": 45.5307961, "lon": -73.6081212, "tags": {"addr:city": "Montr\u00e9al", "addr:housenumber": "43", "addr:province": "QC", "addr:street": "Rue Beaubien Est", "check_date": "2024-07-16", "cuisine": "chinese", "name": "J'ai Feng", "opening_hours": "We-Sa 11:30-17:00", "origin": "chinese", "shop": "grocery", "website": "https://www.jaifengmtl.com/", "wheelchair": "no"}}, {"type": "node", "id": 11972899485, "lat": 45.5444835, "lon": -73.5952246, "tags": {"addr:city": "Montr\u00e9al", "addr:housenumber": "1960", "addr:province": "QC", "addr:street": "Rue Beaubien Est", "bulk_purchase": "yes", "diet:vegan": "yes", "name": "\u00c9picerie Les Emplettes", "opening_hours": "Mo-Fr 09:00-20:00; Sa-Su 09:00-19:00", "organic": "yes", "phone": "+1 514 508 1960", "shop": "grocery", "website": "https://www.lesemplettes.com/", "wheelchair": "no"}}, {"type": "node", "id": 11973027301, "lat": 45.4793261, "lon": -73.6026668, "tags": {"addr:city": "Westmount", "addr:housenumber": "4818", "addr:province": "QC", "addr:street": "Rue Sherbrooke Ouest", "name": "fruit mon victoria", "shop": "supermarket"}}, {"type": "node", "id": 11973394097, "lat": 45.4610798, "lon": -73.6400566, "tags": {"addr:city": "Montr\u00e9al", "addr:housenumber": "6975", "addr:province": "QC", "addr:street": "Rue de Terrebonne", "currency:CAD": "yes", "currency:EUR": "yes", "currency:TUSD": "yes", "internet_access": "yes", "name": "Tunisian Food Market", "opening_hours": "Mo-Su 10:00-21:00", "payment:cash": "yes", "payment:debit_cards": "yes", "payment:visa": "yes", "phone": "+1-438-501-7777", "shop": "supermarket"}}, {"type": "node", "id": 11980254367, "lat": 45.5991341, "lon": -73.6137441}, {"type": "node", "id": 11980254368, "lat": 45.599148, "lon": -73.6137316}, {"type": "node", "id": 11980259707, "lat": 45.5994477, "lon": -73.6134541}, {"type": "node", "id": 11980259708, "lat": 45.5991478, "lon": -73.6137752}, {"type": "node", "id": 11980262470, "lat": 45.5991553, "lon": -73.6137482}, {"type": "node", "id": 11980262471, "lat": 45.5992063, "lon": -73.6137022}, {"type": "node", "id": 11980262472, "lat": 45.5991988, "lon": -73.6136854}, {"type": "node", "id": 11980262473, "lat": 45.5992404, "lon": -73.6136479}, {"type": "node", "id": 11980262474, "lat": 45.5992478, "lon": -73.6136645}, {"type": "node", "id": 11980262475, "lat": 45.5992763, "lon": -73.6136388}, {"type": "node", "id": 11980262476, "lat": 45.5992688, "lon": -73.6136219}, {"type": "node", "id": 11980262477, "lat": 45.5993074, "lon": -73.6135871}, {"type": "node", "id": 11980262478, "lat": 45.5993144, "lon": -73.6136031}, {"type": "node", "id": 11980262479, "lat": 45.5993409, "lon": -73.6135792}, {"type": "node", "id": 11980262480, "lat": 45.5993478, "lon": -73.6135946}, {"type": "node", "id": 11980262481, "lat": 45.5993777, "lon": -73.6135676}, {"type": "node", "id": 11980262483, "lat": 45.5993697, "lon": -73.6135496}, {"type": "node", "id": 11980262484, "lat": 45.5994556, "lon": -73.6134721}, {"type": "node", "id": 11980262485, "lat": 45.5994226, "lon": -73.6133732}, {"type": "node", "id": 12001603934, "lat": 45.5215266, "lon": -73.5779942, "tags": {"addr:housenumber": "4182", "addr:street": "Rue Saint-Denis", "name": "March\u00e9 Gangnam Style", "opening_hours": "Mo-Sa 10:30-22:00; Su 11:00-20:00", "origin": "korean", "phone": "+1 514 667 6753", "shop": "grocery", "website": "https://www.facebook.com/people/March%C3%A9-Gangnam-Style/100083461773885/"}}, {"type": "node", "id": 12012577369, "lat": 45.4651625, "lon": -73.6258323, "tags": {"addr:housenumber": "6350", "addr:street": "Rue Sherbrooke Ouest", "name": "Supermarch\u00e9 Danika", "phone": "+1-514-269-1000", "shop": "grocery"}}, {"type": "node", "id": 12046129074, "lat": 45.5480409, "lon": -73.535553, "tags": {"addr:housenumber": "4054", "addr:street": "Rue Sainte-Catherine Est", "check_date": "2024-07-10", "name": "March\u00e9 Losako", "origin": "african", "shop": "grocery", "wheelchair": "no"}}, {"type": "node", "id": 12050249706, "lat": 45.491939, "lon": -73.8503984, "tags": {"name": "Palumbo", "shop": "supermarket"}}, {"type": "node", "id": 12106613359, "lat": 45.5895641, "lon": -73.5690758, "tags": {"brand": "IGA", "brand:wikidata": "Q3146662", "name": "IGA", "shop": "supermarket"}}, {"type": "node", "id": 12121424794, "lat": 45.4570278, "lon": -73.5717436, "tags": {"addr:housenumber": "4842", "addr:street": "Rue de Verdun", "cuisine": "african", "name": "March\u00e9 Maman Jeanne", "phone": "+1 514 768 2333", "shop": "grocery", "wheelchair": "no"}}, {"type": "node", "id": 12155871183, "lat": 45.4792798, "lon": -73.6028346, "tags": {"name": "Eatz", "sales": "Freshly made food", "shop": "supermarket"}}, {"type": "node", "id": 12158805789, "lat": 45.4493471, "lon": -73.6091863, "tags": {"addr:city": "LaSalle", "addr:housenumber": "6188", "addr:postcode": "H8N 3E4", "addr:province": "QC", "addr:street": "Boulevard Newman", "branch": "Dollarama Complexe Angrignon", "name": "Dollarama", "opening_hours": "Mo-Su 08:00-21:00", "payment:cash": "yes", "payment:coins": "yes", "payment:credit_cards": "yes", "payment:debit_cards": "yes", "phone": "+1-888-365-4266", "shop": "supermarket"}}, {"type": "node", "id": 12161631876, "lat": 45.4518578, "lon": -73.6102624, "tags": {"addr:city": "LaSalle", "addr:housenumber": "6797", "addr:postcode": "H8N 3E4", "addr:province": "QC", "addr:street": "Boulevard Newman", "brand": "Walmart", "brand:wikidata": "Q483551", "brand:wikipedia": "en:Walmart", "name": "Walmart Supercenter", "opening_hours": "Mo-Fr 08:00-21:00; Sa, Su 08:00-17:00", "phone": "+1 514 368-2248", "shop": "supermarket", "toilets": "yes", "website": "https://www.walmart.ca/en/stores-near-me/lasalle-quebec-3046", "website:en": "https://www.walmart.ca/en/stores-near-me/lasalle-quebec-3046", "website:fr": "https://www.walmart.ca/fr/magasins-pres-de-chez-moi/lasalle-quebec-3046"}}, {"type": "node", "id": 12194959197, "lat": 45.5101892, "lon": -73.574704, "tags": {"name": "March\u00e9 Eden", "opening_hours": "Mo-Su 08:00-22:00", "shop": "supermarket"}}, {"type": "node", "id": 12212956876, "lat": 45.5631265, "lon": -73.5890939, "tags": {"addr:housenumber": "3879", "addr:street": "Rue B\u00e9langer", "diet:halal": "yes", "name": "March\u00e9 Norsol", "shop": "grocery", "wheelchair": "limited"}}, {"type": "node", "id": 12216863395, "lat": 45.554024, "lon": -73.5966831, "tags": {"addr:housenumber": "2636", "addr:street": "Rue B\u00e9langer", "check_date": "2024-10-02", "cuisine": "african", "name": "Maison Gloria Discount", "shop": "grocery", "wheelchair": "no"}}, {"type": "node", "id": 12223106472, "lat": 45.5452718, "lon": -73.6043979, "tags": {"door": "automatic", "entrance": "yes", "wheelchair": "yes"}}, {"type": "node", "id": 12223115490, "lat": 45.5394944, "lon": -73.6099206}, {"type": "node", "id": 12259889379, "lat": 45.5232428, "lon": -73.6049766, "tags": {"check_date": "2024-10-17", "diet:gluten_free": "yes", "diet:kosher": "yes", "name": "\u00c9picerie Mile-End", "organic": "yes", "shop": "supermarket"}}, {"type": "node", "id": 12259934526, "lat": 45.5230709, "lon": -73.6037699, "tags": {"addr:city": "Montr\u00e9al", "addr:housenumber": "5647", "addr:postcode": "H2V 4H2", "addr:province": "Qu\u00e9bec", "addr:street": "Avenue du Parc", "brand": "Maxi", "brand:wikidata": "Q3302441", "check_date": "2025-09-29", "diet:kosher": "yes", "name": "Maxi", "opening_hours": "Mo-Th,Su 08:00-23:00; Fr 08:00-18:00; Sa off", "payment:cash": "yes", "payment:credit_cards": "yes", "payment:debit_cards": "yes", "shop": "supermarket", "wheelchair": "yes"}}, {"type": "node", "id": 12499288407, "lat": 45.541555, "lon": -73.5983528, "tags": {"addr:city": "Montr\u00e9al", "addr:housenumber": "1451", "addr:province": "QC", "addr:street": "Rue Beaubien Est", "brand": "Intermarch\u00e9", "brand:wikidata": "Q3153200", "brand:wikipedia": "fr:Intermarch\u00e9", "name": "L'Intermarch\u00e9 Beaubien", "opening_hours": "Mo-Su 07:00-22:00", "phone": "+15144953404", "shop": "supermarket"}}, {"type": "node", "id": 12499331023, "lat": 45.5206303, "lon": -73.5634705, "tags": {"addr:city": "Montr\u00e9al", "addr:housenumber": "2035", "addr:province": "QC", "addr:street": "Rue Atateken", "branch": "March\u00e9 St Jacques", "brand": "Super C", "brand:wikidata": "Q3504127", "brand:wikipedia": "fr:Super C (entreprise)", "name": "Super C", "opening_hours": "Mo-Su 08:00-23:00", "shop": "supermarket", "start_date": "1931", "wikidata": "Q3289799", "wikipedia": "fr:March\u00e9 Saint-Jacques"}}, {"type": "node", "id": 12501278535, "lat": 45.504773, "lon": -73.6377577, "tags": {"addr:city": "Montr\u00e9al", "addr:housenumber": "6825", "addr:postcode": "H3S 2B6", "addr:province": "Qu\u00e9bec", "addr:street": "Chemin de la C\u00f4te-des-Neiges", "branch": "Bedford", "brand": "Maxi", "brand:wikidata": "Q3302441", "brand:wikipedia": "en:Maxi (Canadian supermarket)", "name": "Maxi", "shop": "supermarket", "wheelchair": "yes"}}, {"type": "node", "id": 12551336601, "lat": 45.5439428, "lon": -73.620538, "tags": {"addr:city": "Montr\u00e9al", "addr:housenumber": "7654", "addr:postcode": "H2R2N6", "addr:province": "QC", "addr:street": "Rue Saint-Hubert", "name": "March\u00e9 Oda", "shop": "grocery"}}, {"type": "node", "id": 12562055270, "lat": 45.5225848, "lon": -73.6062386, "tags": {"addr:housenumber": "1012", "addr:street": "Avenue Bernard", "name": "walters kosher market", "shop": "supermarket"}}, {"type": "node", "id": 12562361430, "lat": 45.521173, "lon": -73.607515, "tags": {"name": "mission sante thuy", "shop": "supermarket"}}, {"type": "node", "id": 12565793087, "lat": 45.4676624, "lon": -73.5411822, "tags": {"addr:city": "Verdun", "addr:housenumber": "38", "addr:postcode": "H3E 1T8", "addr:province": "QC", "addr:street": "Place du Commerce", "name": "Pharmaprix", "opening_hours": "Mo-Su 08:00-21:00", "phone": "+1-514-762-6666", "shop": "supermarket"}}, {"type": "node", "id": 12735418172, "lat": 45.554125, "lon": -73.5877027, "tags": {"amenity": "loading_dock"}}, {"type": "node", "id": 12808976329, "lat": 45.5287028, "lon": -73.6692927, "tags": {"name": "Byblos", "shop": "supermarket"}}, {"type": "node", "id": 12828563813, "lat": 45.463082, "lon": -73.5681796}, {"type": "node", "id": 12828563814, "lat": 45.4630907, "lon": -73.5683755}, {"type": "node", "id": 12828563815, "lat": 45.4632238, "lon": -73.5685235}, {"type": "node", "id": 12828563818, "lat": 45.4629555, "lon": -73.5687718}, {"type": "node", "id": 12877143801, "lat": 45.5098247, "lon": -73.5529644, "tags": {"name": "Le D\u00e9panneur", "shop": "grocery"}}, {"type": "node", "id": 12932029405, "lat": 45.539571, "lon": -73.6536866, "tags": {"addr:housenumber": "310", "addr:postcode": "H2N 1G5", "addr:street": "Rue Chabanel Ouest", "name": "Intermarch\u00e9 Palumbo", "opening_hours": "Mo-Fr 08:30-20:00; Sa 08:30-20:00; Su 09:00-20:00", "shop": "grocery", "website": "https://www.marchepalumbo.com/"}}, {"type": "node", "id": 13049317302, "lat": 45.5204721, "lon": -73.7027364, "tags": {"name": "March\u00e9 Tunis", "shop": "supermarket"}}, {"type": "node", "id": 13056399178, "lat": 45.5843052, "lon": -73.6319908, "tags": {"addr:city": "Montr\u00e9al", "addr:housenumber": "10200", "addr:postcode": "H1H 3Z1", "addr:province": "QC", "addr:street": "Boulevard Pie-IX", "brand": "Maxi", "brand:wikidata": "Q3302441", "brand:wikipedia": "en:Maxi (Canadian supermarket)", "name": "Maxi", "opening_hours": "Mo-Su 08:00-21:00", "phone": "+1-514-321-3111", "shop": "supermarket", "website": "https://www.maxi.ca/store-locator/details/8704", "wheelchair": "yes"}}, {"type": "node", "id": 13134909726, "lat": 45.4609863, "lon": -73.6668325, "tags": {"addr:city": "C\u00f4te-Saint-Luc", "addr:housenumber": "5634", "addr:province": "QC", "addr:street": "Avenue Westminster", "name": "Adar - Supermarch\u00e9 Kosher", "name:en": "Adar - Kosher Supermarket", "shop": "supermarket"}}, {"type": "node", "id": 13178993018, "lat": 45.4969107, "lon": -73.556997, "tags": {"check_date": "2025-09-28", "name": "Maxi", "opening_hours": "08:00-22:00", "payment:cash": "yes", "payment:credit_cards": "yes", "payment:debit_cards": "yes", "shop": "supermarket", "wheelchair": "yes"}}, {"type": "node", "id": 13195339488, "lat": 45.5334178, "lon": -73.6553652, "tags": {"addr:city": "Montr\u00e9al", "addr:housenumber": "9193", "addr:postcode": "H4N 2T2", "addr:province": "QC", "addr:street": "Boulevard de l'Acadie", "brand": "Bulk Barn", "brand:wikidata": "Q4996466", "name": "Bulk Barn", "phone": "+1-514-382-3609", "shop": "supermarket"}}, {"type": "node", "id": 13203609601, "lat": 45.6017202, "lon": -73.5193671, "tags": {"addr:housenumber": "8748", "addr:postcode": "h1l2m7", "addr:street": "Rue Hochelaga", "name": "Terre \u00e0 soi - T\u00e9treaultville", "opening_hours": "Mo-Fr 10:00-18:00; Sa-Su 10:00-17:00", "phone": "+1-514-759-8772", "shop": "grocery", "website": "https://www.terreasoi.ca/"}}, {"type": "node", "id": 13231824804, "lat": 45.4942294, "lon": -73.5742918, "tags": {"addr:city": "Montr\u00e9al", "addr:housenumber": "1470", "addr:postcode": "H3G 1T7", "addr:province": "QC", "addr:street": "Boulevard Ren\u00e9-L\u00e9vesque Ouest", "branch": "Ren\u00e9-L\u00e9vesque Ouest", "brand": "Maxi", "level": "0", "name": "Maxi", "opening_hours": "08:00-22:00", "shop": "supermarket", "url": "https://www.maxi.ca", "website": "https://www.maxi.ca/fr/store-locator/details/7552", "wheelchair": "yes"}}, {"type": "node", "id": 13238957776, "lat": 45.5248745, "lon": -73.5499947, "tags": {"branch": "Super C", "shop": "supermarket"}}, {"type": "node", "id": 13283563959, "lat": 45.5214351, "lon": -73.7024325, "tags": {"name": "March\u00e9 Zaman", "shop": "grocery"}}, {"type": "node", "id": 13283563962, "lat": 45.5213105, "lon": -73.7020595, "tags": {"name": "Nouveau March\u00e9 Tahoor", "shop": "grocery"}}, {"type": "node", "id": 13283563966, "lat": 45.5213981, "lon": -73.7019447, "tags": {"name": "March\u00e9 Sohni", "shop": "supermarket"}}, {"type": "node", "id": 13283563969, "lat": 45.5219101, "lon": -73.7006285, "tags": {"name": "March\u00e9 Rizwan", "shop": "supermarket"}}, {"type": "node", "id": 13324881437, "lat": 45.4393899, "lon": -73.6182426, "tags": {"addr:housenumber": "2107", "addr:street": "Rue Lapierre", "brand": "Wholesale Club", "brand:wikidata": "Q7997568", "name": "Club Entrep\u00f4t", "shop": "supermarket"}}, {"type": "node", "id": 13334482685, "lat": 45.5409764, "lon": -73.6390268, "tags": {"addr:city": "Montr\u00e9al", "addr:housenumber": "8570", "addr:province": "QC", "addr:street": "Boulevard Saint-Laurent", "brand": "Maxi", "brand:wikidata": "Q3302441", "brand:wikipedia": "fr:Maxi (supermarch\u00e9)", "name": "Maxi", "opening_hours": "Mo-Su 08:00-22:00", "shop": "supermarket"}}, {"type": "way", "id": 46842671, "nodes": [4327631261, 598258733, 598258731, 598258732, 598258729, 598258730, 4327631261], "tags": {"addr:city": "Montr\u00e9al", "addr:housenumber": "7250", "addr:postcode": "H1M 2T5", "addr:street": "Boulevard des Roseraies", "brand": "March\u00e9 Adonis", "brand:wikidata": "Q20707426", "building": "retail", "name": "March\u00e9 Adonis", "shop": "supermarket", "source": "CanVec_Import_2009"}}, {"type": "way", "id": 46844799, "nodes": [598279791, 598279799, 598279798, 598279800, 598279802, 598279801, 598279804, 11294598461, 11294598460, 598279803, 598279791], "tags": {"addr:city": "Montr\u00e9al", "addr:housenumber": "8200", "addr:postcode": "H1Z 4J8", "addr:street": "19e", "attribution": "Natural Resources Canada", "building": "yes", "canvec:CODE": "2010252", "canvec:UUID": "11CF452AF96BE5F4E0409C8467120387", "name": "Sami Fruits", "phone": "+1-514-593-1333", "shop": "supermarket", "source": "CanVec_Import_2009", "website": "http://samifruits.com/"}}, {"type": "way", "id": 46844800, "nodes": [11292287932, 598279794, 598279784, 598279782, 598279783, 11294625889, 11294625890, 11294625891, 11294625892, 598279809, 598279808, 11294625893, 11294625895, 11294625896, 11294625894, 598279807, 11292287932], "tags": {"addr:city": "Montr\u00e9al", "addr:housenumber": "3733", "addr:postcode": "H1Z 2G1", "addr:province": "Quebec", "addr:street": "Rue Jarry Est", "attribution": "Natural Resources Canada", "building": "yes", "canvec:CODE": "2010252", "canvec:UUID": "11CF45291294E5F4E0409C8467120387", "name": "Kim Phat", "opening_hours": "Mo-Fr 09:00-17:00", "payment:cash": "yes", "payment:credit_cards": "yes", "payment:debit_cards": "yes", "phone": "+1-514-727-8919", "shop": "supermarket", "source": "CanVec_Import_2009", "website": "https://www.kimphat.com/fr/"}}, {"type": "way", "id": 73074151, "nodes": [867272180, 9156239062, 9156239061, 867272183, 1028375789, 867272187, 867272190, 867272180], "tags": {"addr:city": "Montr\u00e9al", "addr:housenumber": "2925", "addr:postcode": "H1W 3Z8", "addr:province": "Qu\u00e9bec", "addr:street": "Rue Rachel Est", "brand": "Provigo", "brand:wikidata": "Q3408306", "brand:wikipedia": "fr:Provigo", "building": "retail", "building:levels": "2", "check_date": "2025-04-12", "name": "Provigo", "opening_hours": "Mo-Su 08:00-22:00", "operator": "Les Compagnies Loblaw Limit\u00e9e", "organic": "yes", "payment:coins": "no", "payment:debit_cards": "yes", "payment:mastercard": "yes", "payment:notes": "no", "payment:visa": "yes", "phone": "+1-514-522-4442", "roof:levels": "0", "roof:shape": "flat", "shop": "supermarket", "website": "https://www.provigo.ca/", "wheelchair": "yes"}}, {"type": "way", "id": 86042387, "nodes": [998497093, 998497095, 9652899842, 998497096, 9652899841, 9652899840, 11670326728, 9652899839, 998497101, 998497105, 9652899838, 9652899837, 9652899836, 9652899835, 998497093], "tags": {"addr:city": "LaSalle", "addr:housenumber": "6767", "addr:postcode": "H8N 3E4", "addr:street": "Avenue Newman", "brand": "Maxi", "brand:wikidata": "Q3302441", "building": "supermarket", "building:levels": "2", "check_date:opening_hours": "2023-08-14", "name": "Maxi", "opening_hours": "Mo-Su 08:00-21:00", "organic": "yes", "phone": "+1 514 364 7168", "shop": "supermarket", "website": "https://www.maxi.ca/store-locator/details/7557"}}, {"type": "way", "id": 86981961, "nodes": [1012003825, 11888146642, 9456040115, 1012003826, 11165706183, 11888146646, 1012003827, 1012003829, 1012003830, 1012003831, 1012003825], "tags": {"addr:city": "Montr\u00e9al", "addr:housenumber": "2535", "addr:postcode": "H1Y 1V7", "addr:province": "QC", "addr:street": "Rue Masson", "brand": "Maxi", "brand:wikidata": "Q3302441", "brand:wikipedia": "fr:Maxi (supermarch\u00e9)", "building": "yes", "building:levels": "2", "name": "Maxi", "opening_hours": "Mo-Su 08:00-22:00", "operator": "Loblaw Companies Limited", "shop": "supermarket", "website": "https://www.maxi.ca/", "wheelchair": "yes"}}, {"type": "way", "id": 110162735, "nodes": [1258954663, 1258954665, 1258954660, 1258954667, 1258954658, 1258954666, 1258954662, 1258954664, 1258954659, 1258954661, 1258954663], "tags": {"brand": "Maxi", "brand:wikidata": "Q3302441", "brand:wikipedia": "en:Maxi (Canadian supermarket)", "building": "yes", "internet_access": "wlan", "name": "Maxi", "opening_hours": "Mo-Su 08:00-22:00", "operator": "Maxi", "shop": "supermarket", "wheelchair": "yes"}}, {"type": "way", "id": 133296442, "nodes": [11584539107, 11584539106, 3608602520, 1467302724, 1467302722, 11584539107], "tags": {"addr:city": "Montr\u00e9al", "addr:housenumber": "1000", "addr:postcode": "H2J 1X6", "addr:street": "Avenue du Mont-Royal Est", "branch": "Boyer", "building": "retail", "building:levels": "2", "check_date": "2023-05-29", "contact:phone": "+1-514-598-5946", "contact:website": "http://www.weblocal.ca/intermarche-boyer-plateau", "internet_access": "no", "name": "L'Intermarch\u00e9", "opening_hours": "Mo-Su 08:00-23:00", "payment:mastercard": "yes", "payment:visa": "yes", "shop": "supermarket", "wheelchair": "limited"}}, {"type": "way", "id": 181802230, "nodes": [1922092015, 1922092018, 1922092019, 9802440065, 9802440066, 9802440064, 9802440063, 9802440062, 9802440061, 1922092020, 11211286152, 1922092015], "tags": {"addr:city": "Montr\u00e9al", "addr:housenumber": "1180", "addr:postcode": "H2V 1V5", "addr:province": "Qu\u00e9bec", "addr:street": "Avenue Bernard", "brand": "Maxi", "brand:wikidata": "Q3302441", "building": "retail", "building:levels": "3", "check_date": "2025-10-16", "name": "Maxi", "opening_hours": "08:00-22:00", "payment:cash": "yes", "payment:credit_cards": "yes", "payment:debit_cards": "yes", "shop": "supermarket", "wheelchair": "yes"}}, {"type": "way", "id": 190125835, "nodes": [2007315353, 2007315350, 2007315354, 2007315352, 2007315353], "tags": {"name": "Super Marche Orchard", "shop": "supermarket"}}, {"type": "way", "id": 224941530, "nodes": [2337836742, 2337836741, 2337836740, 9388818938, 2337836743, 2337836744, 2337836745, 2337836746, 2337836747, 2337841043, 2337836751, 2337836750, 2337836748, 2337836749, 2337836742], "tags": {"addr:city": "Montreal", "addr:housenumber": "3800", "addr:postcode": "H1W 1S4", "addr:province": "Qu\u00e9bec", "addr:street": "Rue Ontario Est", "branch": "Ontario", "brand": "Metro", "brand:wikidata": "Q1145669", "brand:wikipedia": "fr:Metro (entreprise qu\u00e9b\u00e9coise)", "building": "retail", "building:levels": "2", "check_date:opening_hours": "2024-12-17", "diet:halal": "yes", "diet:kosher": "yes", "name": "Metro", "opening_hours": "Mo-Su 08:00-22:00", "payment:cash": "yes", "payment:debit_cards": "yes", "payment:mastercard": "yes", "payment:visa": "yes", "phone": "+1-514-524-8850", "roof:levels": "0", "roof:shape": "flat", "shop": "supermarket", "source": "survey", "website": "https://www.metro.ca/trouver-une-epicerie/65", "wheelchair": "yes"}}, {"type": "way", "id": 233114947, "nodes": [2414566693, 2503414926, 2414566695, 2414566696, 2414566697, 2414566699, 2414566704, 2414566700, 2414566705, 2414566702, 2414566693], "tags": {"addr:city": "Montr\u00e9al", "addr:housenumber": "4405", "addr:postcode": "H1V 1Y4", "addr:province": "QC", "addr:street": "Rue Sainte-Catherine Est", "brand": "Metro", "brand:wikidata": "Q1145669", "building": "retail", "building:levels": "1", "check_date": "2025-04-23", "diet:halal": "yes", "diet:kosher": "yes", "name": "Metro", "opening_hours": "Mo-Su,PH 08:00-23:00", "operator": "Metro", "payment:cash": "yes", "payment:credit_cards": "yes", "payment:debit_cards": "yes", "payment:mastercard": "yes", "payment:visa": "yes", "phone": "+1 514 254 0126", "roof:shape": "flat", "shop": "supermarket", "wheelchair": "yes"}}, {"type": "way", "id": 235379622, "nodes": [2434459368, 2434459374, 11660423463, 11660423462, 11660423466, 11660423465, 11660423480, 11660423464, 2434459385, 2434459394, 3016922742, 2434459368], "tags": {"addr:city": "Montr\u00e9al", "addr:housenumber": "7600", "addr:postcode": "H1N 3W1", "addr:province": "Qu\u00e9bec", "addr:street": "Rue Sherbrooke Est", "brand": "Maxi", "brand:wikidata": "Q3302441", "building": "retail", "name": "Maxi", "opening_hours": "Mo-Su 08:00-21:00", "payment:cash": "yes", "payment:coins": "yes", "payment:credit_cards": "yes", "payment:debit_cards": "yes", "phone": "+1 514-257-4511", "shop": "supermarket"}}, {"type": "way", "id": 242890427, "nodes": [2503358371, 11481536603, 2503358373, 2503358375, 2503358377, 2503358379, 2503358381, 2503358384, 2503358385, 2503358387, 2503358371], "tags": {"addr:city": "Montr\u00e9al", "addr:housenumber": "5000", "addr:street": "Rue Beaubien Est", "brand": "IGA", "brand:wikidata": "Q3146662", "brand:wikipedia": "en:IGA (supermarkets)", "building": "commercial", "check_date": "2023-09-01", "name": "IGA", "shop": "supermarket", "source": "survey"}}, {"type": "way", "id": 294097254, "nodes": [7428056424, 2976652458, 2976652459, 2976652460, 7428056424], "tags": {"addr:city": "Montr\u00e9al", "addr:housenumber": "1955", "addr:province": "Qu\u00e9bec", "addr:street": "Rue Sainte-Catherine Est", "branch": "Plus", "brand": "Metro", "brand:wikidata": "Q1145669", "brand:wikipedia": "fr:Metro (entreprise qu\u00e9b\u00e9coise)", "building": "retail", "building:levels": "1", "diet:halal": "yes", "diet:kosher": "yes", "name": "Metro", "opening_hours": "Mo-Su 08:00-23:00", "operator": "Metro", "phone": "+1-514-525-5090", "roof:shape": "flat", "shop": "supermarket", "website": "https://metro.ca/", "wheelchair": "yes"}}, {"type": "way", "id": 340554912, "nodes": [3477934940, 3477934942, 3477934941, 3477945716, 3477945894, 3477934943, 3477934940], "tags": {"addr:city": "Montr\u00e9al", "addr:housenumber": "2109", "addr:postcode": "H3H 1M6", "addr:province": "Quebec", "addr:street": "Rue Sainte-Catherine Ouest", "building": "yes", "name": "March\u00e9 Oriental Jang-Teu", "opening_hours": "Mo-Sa 10:00-20:00; Su 11:00-20:00", "phone": "+1-514-932-9777", "shop": "supermarket", "website": "jangteu.com"}}, {"type": "way", "id": 354701956, "nodes": [3603864504, 1461351519, 11658712223, 11658712228, 3603864507, 11658712224, 3603864509, 3603864504], "tags": {"addr:city": "Montr\u00e9al", "addr:housenumber": "5300", "addr:postcode": "H2J 2Y5", "addr:province": "QC", "addr:street": "Rue Saint-Hubert", "brand": "Super C", "brand:wikidata": "Q3504127", "building": "retail", "check_date": "2024-07-14", "name": "Super C", "opening_hours": "Mo-Su 08:00-22:00", "operator": "SuperC", "phone": "+1-514-272-1832", "roof:shape": "flat", "shop": "supermarket"}}, {"type": "way", "id": 623918811, "nodes": [5891509621, 11012522149, 1581924459, 11153254438, 5891509623, 5891509624, 5891509625, 12735418172, 5891509626, 5891509621], "tags": {"addr:city": "Montr\u00e9al", "addr:housenumber": "3185", "addr:postcode": "H1Y 1H5", "addr:province": "QC", "addr:street": "Rue Beaubien Est", "branch": "Montr\u00e9al Beaubien E", "brand": "Maxi", "brand:wikidata": "Q3302441", "building": "commercial", "building:levels": "2", "disused:shop": "yes", "name": "Maxi", "opening_hours": "Mo-Su 08:00-22:00", "phone": "+1 514 721 2433", "roof:shape": "flat", "shop": "supermarket", "website": "https://www.maxi.ca/fr/store-locator/details/7549"}}, {"type": "way", "id": 708130919, "nodes": [6653983453, 6653983454, 9900227871, 9900227870, 6653983455, 6653983456, 6653983453], "tags": {"brand": "IGA", "brand:wikidata": "Q3146662", "brand:wikipedia": "en:IGA (supermarkets)", "building": "yes", "check_date:opening_hours": "2025-01-04", "name": "IGA", "opening_hours": "08:00-23:00", "shop": "supermarket"}}, {"type": "way", "id": 744765230, "nodes": [6970320797, 6970320798, 6970320799, 6970320800, 6970320797], "tags": {"addr:city": "Montr\u00e9al", "addr:housenumber": "700", "addr:postcode": "H3N 1G5", "addr:province": "QC", "addr:street": "Rue Jarry Ouest", "building": "yes", "name": "Murad Supermarch\u00e9 Inc", "opening_hours": "Mo-Su 08:30-22:00", "operator": "Bing map", "shop": "supermarket"}}, {"type": "way", "id": 784494967, "nodes": [7328765571, 7328765572, 7328765573, 7328765574, 7328765571], "tags": {"addr:city": "Montr\u00e9al", "addr:housenumber": "2105", "addr:postcode": "H2B 1B1", "addr:province": "QC", "addr:street": "Rue Sauv\u00e9 Est", "building": "yes", "name": "Supermarch\u00e9 Pistilli", "payment:cash": "yes", "shop": "supermarket"}}, {"type": "way", "id": 878644925, "nodes": [8172540063, 8173900728, 8173900727, 8173900726, 8173900725, 8173900724, 8173900723, 8173900722, 8172540063], "tags": {"addr:housenumber": "436", "addr:street": "Rue B\u00e9langer", "building": "retail", "check_date": "2023-03-04", "cuisine": "latin_american", "name": "March\u00e9 Andes", "opening_hours": "Mo-Fr 10:00-19:00; Sa 09:00-18:00", "payment:interac": "yes", "payment:mastercard": "yes", "payment:visa": "yes", "phone": "+1-514-277-5949", "roof:shape": "flat", "shop": "supermarket", "website": "https://www.marcheandes.com/"}}, {"type": "way", "id": 924971105, "nodes": [8584508626, 12828563814, 12828563813, 11045421570, 8584508643, 8584508619, 12828563818, 8584508632, 8592580534, 8584508644, 8584508623, 8584508622, 12828563815, 8626851764, 8584508621, 8584508620, 8584508626], "tags": {"branch": "Bellemare", "brand": "Metro", "brand:wikidata": "Q1145669", "building": "yes", "name": "Metro", "shop": "supermarket", "wheelchair": "yes"}}, {"type": "way", "id": 1078368896, "nodes": [775041465, 12223106472, 9886360975, 9886360974, 9886360972, 9886360970, 9886360971, 9886360973, 775041465], "tags": {"access": "yes", "brand": "Metro", "brand:wikidata": "Q1145669", "building": "yes", "name": "Metro", "note": "Ouvert \u00e0 nouveau", "opening_hours": "Mo-Su 08:00-21:00", "shop": "supermarket"}}, {"type": "way", "id": 1080083639, "nodes": [9900230332, 9900230329, 12223115490, 9900230330, 9900230331, 9900230332], "tags": {"addr:city": "Montr\u00e9al", "addr:housenumber": "6955", "addr:postcode": "H2S 2N1", "addr:province": "Qu\u00e9bec", "addr:street": "Rue Saint-Hubert", "building": "retail", "name": "Sabor Latino", "opening_hours": "Su-We 09:00-19:00; Th-Sa 09:00-21:00", "phone": "+15142774130", "shop": "supermarket", "website": "https://saborlatino.ca/"}}, {"type": "way", "id": 1152588009, "nodes": [10720374759, 10720374760, 10720374761, 10720374762, 10720374763, 10720374764, 10720374765, 10720374766, 10720374767, 10720374768, 10720374769, 10720374770, 11980262485, 10720374755, 11980259707, 11980262484, 11980262483, 11980262481, 11980262480, 11980262479, 11980262478, 11980262477, 11980262476, 11980262475, 11980262474, 11980262473, 11980262472, 11980262471, 11980262470, 11980254368, 11980254367, 11980259708, 10720374772, 10720374773, 10720374774, 10720374775, 10720374796, 10720374776, 10720374759], "tags": {"addr:housenumber": "9450", "addr:postcode": "H1R 0C4", "addr:street": "Boulevard Lacordaire", "brand": "IGA", "brand:wikidata": "Q3146662", "building": "yes", "name": "IGA Extra Saint-L\u00e9onard", "opening_hours": "Mo-Su 08:00-22:00", "phone": "+1-514-852-9583", "shop": "supermarket", "website": "https://www.iga.net/fr/recherche_de_magasin/magasin/8389"}}, {"type": "way", "id": 1199889104, "nodes": [2413854511, 11127953788, 11127953789, 9199682912, 9199682911, 2413854511], "tags": {"addr:city": "Montr\u00e9al", "addr:housename": "March\u00e9 Maisonneuve", "addr:housenumber": "4445", "addr:postcode": "H1V 3V3", "addr:street": "Rue Ontario Est", "indoor": "area", "name": "Aliments Merci", "opening_hours": "Mo-Sa 9:00-18:00; Su 9:00-17:00", "phone": "+1-514-899-1066", "shop": "supermarket", "website": "https://www.alimentsmerci.com/"}}, {"type": "way", "id": 1199889105, "nodes": [2413854512, 11128036308, 11128036309, 9199712818, 11127953790, 11127953791, 11127953792, 2413854512], "tags": {"addr:city": "Montr\u00e9al", "addr:housename": "March\u00e9 Maisonneuve", "addr:housenumber": "4445", "addr:postcode": "H1V 3V3", "addr:street": "Rue Ontario Est", "indoor": "area", "name": "Fromagerie Maisonneuve", "phone": "+1-514-251-9516", "shop": "supermarket", "website": "http://www.fromageriemaisonneuve.com/"}}]}